ID,Street,City,County,State,Country,Zipcode
A-6523266, Tyler Ave,Tyler,Smith,TX,US,75702-4522
A-393884,San Pedro Ave,San Antonio,Bexar,TX,US,78212-4610
A-2909167,N Stadium Dr,Houston,Harris,TX,US,77054
A-3337524,Westheimer Rd,Houston,Harris,TX,US,77057-5720
A-5268138,I-10,Katy,Harris,TX,US,77450
A-1897367,I-35 N,Austin,Travis,TX,US,78748
A-268832,W Tidwell Rd,Houston,Harris,TX,US,77040-5704
A-2246934,US-75 N,Dallas,Dallas,TX,US,75243
A-6499764,I-820 E,Hurst,Tarrant,TX,US,76053
A-1591635,FM 969,Austin,Travis,TX,US,78724-6363
A-2023057,Metric Blvd,Austin,Travis,TX,US,78758
A-5829522,Altamesa Blvd,Fort Worth,Tarrant,TX,US,76134
A-5486090, FM 969,Austin,Travis,TX,US,78724
A-3052796,Preston Rd,Dallas,Dallas,TX,US,75240
A-5129568, S Congress Ave,Austin,Travis,TX,US,78704-6427
A-1993356,S Congress Ave,Austin,Travis,TX,US,78704-6413
A-2935937,I-45 N,Webster,Harris,TX,US,77598
A-2056162,Bell Dr,Austin,Travis,TX,US,78735
A-291244,W Martin Luther King Jr Blvd,Austin,Travis,TX,US,78701-1230
A-386259,Beechnut St,Houston,Harris,TX,US,77072
A-2524899,R L Thornton Fwy E,Dallas,Dallas,TX,US,75223
A-2869776,Eberhart Ln,Austin,Travis,TX,US,78745-4419
A-1596488,E Lovers Ln,Dallas,Dallas,TX,US,75206
A-3442839, Great Trinity Forest Way,Dallas,Dallas,TX,US,75241
A-265023,W Sam Houston Tollway S,Houston,Harris,TX,US,77099
A-2358276,Cambridge St,Houston,Harris,TX,US,77054-3901
A-1773082,Estrella St,San Antonio,Bexar,TX,US,78237
A-6950682,N Loop 1604 E,San Antonio,Bexar,TX,US,78247
A-2652960,E Saint Elmo Rd,Austin,Travis,TX,US,78744
A-299961,Tuscany Way,Austin,Travis,TX,US,78754-4734
A-7384703,S Sam Houston Tollway E,Houston,Harris,TX,US,77089
A-1589336,E Ben White Blvd,Austin,Travis,TX,US,78704-7401
A-274820,Redwater Dr,Austin,Travis,TX,US,78748-3041
A-2385196,E 2nd 1/2 St,Austin,Travis,TX,US,78702-4651
A-2214964,S FM 973,Austin,Travis,TX,US,78719-9796
A-1987781,US-75 N,Dallas,Dallas,TX,US,75206
A-1958818,State Loop 375 N,El Paso,El Paso,TX,US,79936
A-2224656,Ramsey Rd,Donna,Hidalgo,TX,US,78537
A-1983162,E 12th St,Austin,Travis,TX,US,78721-1904
A-879390,La Roche Ln,Houston,Harris,TX,US,77036-7306
A-7470916,I-35E S,Lewisville,Denton,TX,US,75077
A-6272242, Chimney Rock Rd,Houston,Harris,TX,US,77056
A-1358295,I-45 N,Dallas,Dallas,TX,US,75216
A-2036952,E Ben White Blvd,Austin,Travis,TX,US,78741
A-4894624, Westover St,Houston,Harris,TX,US,77087-6020
A-5258178,S Pleasant Valley Rd,Austin,Travis,TX,US,78744
A-4474873,,Garland,Dallas,TX,US,75043
A-6166071, N Lamar Blvd,Austin,Travis,TX,US,78751
A-3340163,US-75 S,Dallas,Dallas,TX,US,75226
A-4176005,I-10,Junction,Kimble,TX,US,76849
A-3940926, Enid St,Houston,Harris,TX,US,77009-3105
A-6886837,US-75 S,Dallas,Dallas,TX,US,75201
A-1398675,I-635 N,Mesquite,Dallas,TX,US,75149
A-2927787,Myrtle Ave,El Paso,El Paso,TX,US,79901
A-7569452,TX-121 S,McKinney,Collin,TX,US,75070
A-765786,I-45 S,Houston,Harris,TX,US,77037
A-428839,Belgium Ln,San Antonio,Bexar,TX,US,78219-2540
A-509072,W Jefferson Blvd,Dallas,Dallas,TX,US,75208-4601
A-2560226,Babcock Rd,San Antonio,Bexar,TX,US,78240-3944
A-2495760,Research Blvd,Austin,Travis,TX,US,78758-8429
A-5554351, Almeda Genoa Rd,Houston,Harris,TX,US,77075-2001
A-2433773,I-20 W,Grand Prairie,Dallas,TX,US,75052
A-2003126,E State Highway 356,Irving,Dallas,TX,US,75060
A-2853728,US-67 S,Dallas,Dallas,TX,US,75224
A-4646798,Westward St,Houston,Harris,TX,US,77081
A-4006460,Jacksboro Hwy,Fort Worth,Tarrant,TX,US,76135
A-1898663,Saints Arcade Dr,San Antonio,Bexar,TX,US,78220
A-6596211,Dallas North Tollway S,Dallas,Dallas,TX,US,75248
A-3117074,Brazos St,Houston,Harris,TX,US,77002-2529
A-1893192,Rojas Dr,El Paso,El Paso,TX,US,79928
A-1050562,I-45 S,Dallas,Dallas,TX,US,75215
A-560633,,Channelview,Harris,TX,US,77530
A-1491218,W Sam Houston Pkwy S,Houston,Harris,TX,US,77042-3611
A-3108434,Gateway Blvd W,El Paso,El Paso,TX,US,79925
A-6912393,I-35,Austin,Travis,TX,US,78744
A-2071615,Abrams Rd,Dallas,Dallas,TX,US,75243
A-5648566,Connally Loop,San Antonio,Bexar,TX,US,78224
A-305077,Richmond Ave,Houston,Harris,TX,US,77063
A-5333588, Ferguson Rd,Dallas,Dallas,TX,US,75228-2313
A-3848147, Crest Park Dr,Houston,Harris,TX,US,77082-2019
A-5899614, N Interstate 35,Round Rock,Williamson,TX,US,78681-4223
A-2003898,I-635 E,Dallas,Dallas,TX,US,75243
A-1253345,I-20 E,Fort Worth,Tarrant,TX,US,76133
A-7494870,US-90 E,Houston,Harris,TX,US,77020
A-2879165,Walnut St,Dallas,Dallas,TX,US,75243
A-1818206,I-30 W,Rockwall,Rockwall,TX,US,75087
A-6748521,TX-121 S,Grapevine,Tarrant,TX,US,76051
A-452350,Hiram Clarke Rd,Houston,Fort Bend,TX,US,77053-1348
A-2906525,Main St,Houston,Harris,TX,US,77025
A-2712824,Springdale Rd,Austin,Travis,TX,US,78721-1943
A-307052,Synott Rd,Houston,Harris,TX,US,77082
A-488291,Willowbend Blvd,Houston,Harris,TX,US,77035-3510
A-1019741,Grand Pkwy S,Cypress,Harris,TX,US,77433
A-7178988,Edgemere Blvd,El Paso,El Paso,TX,US,79936
A-2881564,Walsh Tarlton Ln,Austin,Travis,TX,US,78746
A-1787695,US Highway 290 E,Manor,Travis,TX,US,78653-4576
A-4749978,US-59 HOV Ln,Houston,Harris,TX,US,77006
A-5371452, Oak Strm,Dallas,Dallas,TX,US,75243-8012
A-6635889, Westover St,Houston,Harris,TX,US,77087-5912
A-1709873,Scott St,Houston,Harris,TX,US,77004-6412
A-5064906,Katy Fwy,Houston,Harris,TX,US,77024
A-3434168,Exposition Ave,Dallas,Dallas,TX,US,75226
A-5811154, Pinemont Dr,Houston,Harris,TX,US,77092-3127
A-332936,Antoine Dr,Houston,Harris,TX,US,77086-3947
A-1799397,Highway 71 E,Del Valle,Travis,TX,US,78617
A-4668688, Dawn Misty Ln,Houston,Harris,TX,US,77048-2919
A-3336913,Callaghan Rd,San Antonio,Bexar,TX,US,78230
A-4996975,Fox Ave,Lewisville,Denton,TX,US,75067
A-394063,US-59 N,Houston,Harris,TX,US,77026
A-2376526,E Parmer Ln,Austin,Travis,TX,US,78753
A-2018007,NW Loop 410,San Antonio,Bexar,TX,US,78238-4111
A-767140,N Fielder Rd,Arlington,Tarrant,TX,US,76012
A-2360591,S Pleasant Valley Rd,Austin,Travis,TX,US,78741
A-278934,Weiss Ln,Pflugerville,Travis,TX,US,78660
A-970093,Mandalay Way,Houston,Harris,TX,US,77045
A-1167572,Parkfield Dr,Austin,Travis,TX,US,78758-6601
A-1345801,Loop 12 N,Dallas,Dallas,TX,US,75220
A-856157,I-610 W,Houston,Harris,TX,US,77054
A-2911398,US-87 N,San Antonio,Bexar,TX,US,78230
A-4038433, S Shepherd Dr,Houston,Harris,TX,US,77098-5317
A-485658,I-10 W,Houston,Harris,TX,US,77007
A-283422,US-290 E,Austin,Travis,TX,US,78741
A-2770693,US-75 S,Dallas,Dallas,TX,US,75206
A-2728546,Peavy Rd,Dallas,Dallas,TX,US,75228-4803
A-4916173, S Lakeshore Blvd,Austin,Travis,TX,US,78741
A-1047351,Weiss St,Houston,Harris,TX,US,77009-4152
A-394919,TX-71 E,Austin,Travis,TX,US,78741
A-6300125, Research Blvd,Austin,Travis,TX,US,78758-8427
A-3445149,I-610 E,Houston,Harris,TX,US,77092
A-2209947,Gateway Blvd W,El Paso,El Paso,TX,US,79936-7837
A-2935968,Northridge Dr,Houston,Harris,TX,US,77033-3630
A-268928,Shady Downs Dr,Houston,Harris,TX,US,77082-5656
A-4388133, Jeff Davis Dr,Tyler,Smith,TX,US,75703-5553
A-1821060,Continental Ave,Dallas,Dallas,TX,US,75207
A-647528,Airport Fwy,Dallas,Tarrant,TX,US,75261
A-2650555,US-67 S,Garland,Dallas,TX,US,75043
A-1469807,Frankston Hwy,Tyler,Smith,TX,US,75701
A-5438639,I-45 HOV Ln,Houston,Harris,TX,US,77022
A-6935955, Pine Knoll Dr,Houston,Harris,TX,US,77099-2411
A-306491,US-67 S,Dallas,Dallas,TX,US,75237
A-5838889, W Hurst Blvd,Hurst,Tarrant,TX,US,76053-7341
A-2728390,SW Military Dr,San Antonio,Bexar,TX,US,78224-1038
A-1502863,I-45 S,Webster,Harris,TX,US,77598
A-4513630,I-20 W,Dallas,Dallas,TX,US,75236
A-305465,W Sam Houston Tollway S,Houston,Harris,TX,US,77072
A-3429628,Frontage Rd,Sugar Land,Fort Bend,TX,US,77478
A-3438685,Wilcrest Dr,Houston,Harris,TX,US,77042
A-6216392,TX-375 E,El Paso,El Paso,TX,US,79924
A-2372155,US Highway 290 E,Manor,Travis,TX,US,78653
A-2721445,Airport Fwy E,Irving,Dallas,TX,US,75062
A-1347533,Waugh Dr,Houston,Harris,TX,US,77019-3908
A-3258619,FM 969,Austin,Travis,TX,US,78724-6398
A-3081901,I-45 S,Houston,Harris,TX,US,77037
A-2388746,Idaho Ave,Dallas,Dallas,TX,US,75216-2030
A-510892,Wadsworth Dr,Dallas,Dallas,TX,US,75216
A-625942,FAA Blvd,Fort Worth,Tarrant,TX,US,76155
A-7621963,US-87 N,San Antonio,Bexar,TX,US,78230
A-4909152, Highway 290 W,Austin,Travis,TX,US,78736
A-2217219,Redbud Trl,West Lake Hills,Travis,TX,US,78746-4342
A-3959112, W 38th St,Austin,Travis,TX,US,78705-1005
A-7600753,Loop 12 N,Dallas,Dallas,TX,US,75211
A-7677151,I-635 W,Dallas,Dallas,TX,US,75243
A-282344,Bissonnet St,Houston,Harris,TX,US,77036
A-7739940,US-75 S,Dallas,Dallas,TX,US,75205
A-824695,T.C. Jester Blvd,Houston,Harris,TX,US,77007
A-5891889,Homestead Rd,Houston,Harris,TX,US,77028
A-6139183,US-75 N,Dallas,Dallas,TX,US,75243
A-1551787,Gus Thomasson Rd,Mesquite,Dallas,TX,US,75150
A-2077949,Royal Ln,Dallas,Dallas,TX,US,75243-7451
A-2570522,Walnut Hill Ln,Dallas,Dallas,TX,US,75220
A-1419404,N Beacon St,Dallas,Dallas,TX,US,75214-4931
A-4046236,TX-183 Express Toll,Irving,Dallas,TX,US,75062
A-384985,Walnut Hill Ln,Dallas,Dallas,TX,US,75238
A-2417316,N Capital of Texas Hwy,Austin,Travis,TX,US,78746-1138
A-509262,Lockwood Dr,Houston,Harris,TX,US,77020-4723
A-3239867,Sean Haggerty Dr,El Paso,El Paso,TX,US,79934
A-3594148,US-83 S,Asherton,Dimmit,TX,US,78827
A-2122637,E 24th St,Houston,Harris,TX,US,77009-1710
A-391999,US-281 S,San Antonio,Bexar,TX,US,78202
A-2490522,Memorial Dr,Houston,Harris,TX,US,77007-8012
A-560417,N Stemmons Fwy,Dallas,Dallas,TX,US,75247
A-4442122, Main St,Houston,Harris,TX,US,77025-3834
A-3821599, Montana Ave,El Paso,El Paso,TX,US,79936-1505
A-3147748,I-45 N,Houston,Harris,TX,US,77022
A-1103179,US-75 N,Dallas,Dallas,TX,US,75251
A-6338510,I-69 N,Houston,Harris,TX,US,77074
A-280191,Goodhope St,Houston,Harris,TX,US,77021-6112
A-3438229,I-35E N,Waxahachie,Ellis,TX,US,75165
A-4026218,Lyndon B Johnson Fwy,Dallas,Dallas,TX,US,75238
A-6566368,Old Spanish Trl,Houston,Harris,TX,US,77021
A-3331392,US-67 S,Dallas,Dallas,TX,US,75223
A-7568617,Mopac Expy,Austin,Travis,TX,US,78749
A-271581,Hillcroft St,Houston,Harris,TX,US,77081-3102
A-2530744,I-410 E,San Antonio,Bexar,TX,US,78213
A-1394194,Cullen Dr,Plano,Collin,TX,US,75023
A-882000,N Fitzhugh Ave,Dallas,Dallas,TX,US,75205
A-394246,President George Bush Tpke N,Irving,Dallas,TX,US,75039
A-1422740,I-45 S,Spring,Montgomery,TX,US,77386
A-4991126,Alemeda St,Fort Worth,Tarrant,TX,US,76108
A-5472585, Marvin D Love Fwy,Dallas,Dallas,TX,US,75224
A-7676832,I-20 E,Fort Worth,Tarrant,TX,US,76140
A-2686529,E Oltorf St,Austin,Travis,TX,US,78741
A-2268648,Hardy St,Houston,Harris,TX,US,77009-5929
A-293601,US-183 S,Austin,Travis,TX,US,78702
A-5509708, US Highway 290 E,Manor,Travis,TX,US,78653
A-5636216, N Jim Miller Rd,Dallas,Dallas,TX,US,75227
A-793146,I-820 S,Hurst,Tarrant,TX,US,76053
A-6258412, N Haskell Ave,Dallas,Dallas,TX,US,75204-2900
A-429005,W Kiest Blvd,Dallas,Dallas,TX,US,75236-1016
A-384688,I-635 W,Dallas,Dallas,TX,US,75243
A-1636211,E Riverside Dr,Austin,Travis,TX,US,78741
A-4925183,Freestone Cir,Dallas,Dallas,TX,US,75228
A-1659555,US-75 S,Richardson,Dallas,TX,US,75080
A-4925987,Eastex Fwy,Humble,Harris,TX,US,77396
A-489029,US-90 E,Houston,Harris,TX,US,77024
A-1217643,Northwest Hwy,Garland,Dallas,TX,US,75041
A-5110832, Park Place Blvd,Houston,Harris,TX,US,77017
A-627309,E Palestine St,Hutchins,Dallas,TX,US,75141
A-4115985,South Fwy,Fort Worth,Tarrant,TX,US,76115
A-7172326,I-35 S,Austin,Travis,TX,US,78747
A-3427888,I-635 S,Mesquite,Dallas,TX,US,75149
A-282173,I-35 N,Austin,Travis,TX,US,78744
A-2143736,N J.J. Lemmon St,Dallas,Dallas,TX,US,75241
A-2033349,Cullen Blvd,Houston,Harris,TX,US,77047-1150
A-4632950,Lyndon B Johnson Fwy,Mesquite,Dallas,TX,US,75150
A-6394116, Old Omen Rd,Tyler,Smith,TX,US,75707
A-3093208,W Camp Wisdom Rd,Dallas,Dallas,TX,US,75232-3536
A-1790230,State Highway 71 W,Spicewood,Travis,TX,US,78669-6840
A-5529077,TX-183 Express Toll,Euless,Tarrant,TX,US,76039
A-2939674,Loop 12 S,Irving,Dallas,TX,US,75062
A-334476,Old San Antonio Rd,Austin,Travis,TX,US,78748
A-300192,US-77 S,Dallas,Dallas,TX,US,75207
A-1180290,Ferguson Rd,Dallas,Dallas,TX,US,75228-1901
A-3767667, Louisiana Ave,Shiner,Lavaca,TX,US,77984-3010
A-7656623,US-287 S,Fort Worth,Tarrant,TX,US,76131
A-2828041,Mopac Expy N,Austin,Travis,TX,US,78746
A-1372919,Barclay St,Dallas,Dallas,TX,US,75227
A-286370,Beryl Oak Dr,Austin,Travis,TX,US,78744-4052
A-5858592,E Renner Rd,Richardson,Collin,TX,US,75080
A-2313440,I-35 S,Austin,Travis,TX,US,78745
A-1522252,Boicewood St,Houston,Harris,TX,US,77016-5104
A-1414139,Jollyville Rd,Austin,Travis,TX,US,78759
A-1319089,Ella Blvd,Houston,Harris,TX,US,77018
A-1868095,Gracy Farms Ln,Austin,Travis,TX,US,78758
A-2273472,Gattis School Rd,Round Rock,Travis,TX,US,78664-9323
A-291033,Inwood Rd,Dallas,Dallas,TX,US,75209-3328
A-1636106,Ingram Rd,San Antonio,Bexar,TX,US,78238
A-7363331,I-35 S,Denton,Denton,TX,US,76207
A-3899960,I-35 S,Austin,Travis,TX,US,78745
A-3406098,W Slaughter Ln,Austin,Travis,TX,US,78748-5801
A-3515447, Westwind Dr,El Paso,El Paso,TX,US,79912-3247
A-2138925,President George Bush Tpke W,Sachse,Dallas,TX,US,75048
A-2443380,S Buckner Blvd,Dallas,Dallas,TX,US,75227
A-289397,Airport Blvd,Austin,Travis,TX,US,78721
A-6173879, Abshire Ln,Dallas,Dallas,TX,US,75228-4967
A-5488546, Alief Clodine Rd,Houston,Harris,TX,US,77082-5608
A-1307556,Harry Hines Blvd,Dallas,Dallas,TX,US,75234-5919
A-1694311,E Pecan St,Lockhart,Caldwell,TX,US,78644-2125
A-3262678,John T White Rd,Fort Worth,Tarrant,TX,US,76120
A-2724334,I-10 E,El Paso,El Paso,TX,US,79915
A-6242250,I-35W N,Fort Worth,Tarrant,TX,US,76104
A-2104229,I-10 E,El Paso,El Paso,TX,US,79901
A-7592574,S Sam Houston Tollway W,Houston,Harris,TX,US,77053
A-385248,I-35 S,Austin,Travis,TX,US,78747
A-5849125,Dallas North Tollway N,Dallas,Dallas,TX,US,75230
A-2315670,I-30 W,Fort Worth,Tarrant,TX,US,76104
A-3260442,Airport Blvd,Austin,Travis,TX,US,78702
A-5880284, N Central Expy,Dallas,Dallas,TX,US,75206-6525
A-4172612, Joaquin Dr,Dallas,Dallas,TX,US,75228-2158
A-391625,Crosby Fwy E,Houston,Harris,TX,US,77013
A-2376646,State Highway 149,Beckville,Panola,TX,US,75631
A-1805561,Bellaire Blvd,Houston,Harris,TX,US,77072-2449
A-2551823,I-10 W,Houston,Harris,TX,US,77007
A-294703,SE Loop 410,San Antonio,Bexar,TX,US,78222-3113
A-2007633,Steck Ave,Austin,Travis,TX,US,78759
A-393823,Pharr St,Fort Worth,Tarrant,TX,US,76102
A-2329410,TX-130 S,Lockhart,Caldwell,TX,US,78644
A-4513686,Lyndon B Johnson Fwy,Mesquite,Dallas,TX,US,75150
A-6136554, FM 969,Austin,Travis,TX,US,78724-6106
A-7043317,I-35 S,Austin,Travis,TX,US,78722
A-733213,I-35W,Denton,Denton,TX,US,76207
A-300903,I-20 W,Fort Worth,Tarrant,TX,US,76119
A-264368,Tabor St,Houston,Harris,TX,US,77009-5300
A-2508295,Abrams Rd,Dallas,Dallas,TX,US,75243
A-6902406,I-45 S,Houston,Harris,TX,US,77023
A-579216,Manchester St,Houston,Harris,TX,US,77012-2151
A-931836,Huebner Rd,San Antonio,Bexar,TX,US,78248
A-1166051,Chimney Rock Rd,Houston,Harris,TX,US,77057
A-2168667,Mopac Expy N,Austin,Travis,TX,US,78731
A-3218078,S Sabinas St,San Antonio,Bexar,TX,US,78207-3820
A-6573191, Claremont Dr,Dallas,Dallas,TX,US,75228-6474
A-6138016, Caldwell Ln,Del Valle,Travis,TX,US,78617
A-1235096,John Carpenter Fwy,Irving,Dallas,TX,US,75062
A-3142661,I-10 W,El Paso,El Paso,TX,US,79925
A-5570129, Chimney Rock Rd,Houston,Harris,TX,US,77056-6639
A-2698873,Walnut Hill Ln,Dallas,Dallas,TX,US,75220
A-7012730,Stemmons Fwy N,Dallas,Dallas,TX,US,75219
A-5443775,TX-360 S,Arlington,Tarrant,TX,US,76010
A-4633622,I-635 E,Dallas,Dallas,TX,US,75243
A-7038928,I-45 S,Houston,Harris,TX,US,77002
A-3287042,I-35 S,Austin,Travis,TX,US,78701
A-6921965,I-35E N,Dallas,Dallas,TX,US,75203
A-2476151,Kemp Blvd,Wichita Falls,Wichita,TX,US,76308-3717
A-433185,E Oltorf St,Austin,Travis,TX,US,78741-4027
A-812675,N Walcott St,Jefferson,Marion,TX,US,75657-1441
A-1190820,I-35E N,Dallas,Dallas,TX,US,75216
A-487664,W 35th St,Austin,Travis,TX,US,78703
A-2331689,I-20 W,Arlington,Tarrant,TX,US,76017
A-5844891,I-20 W,Dallas,Dallas,TX,US,75241
A-3993920,TX-121,Dallas,Tarrant,TX,US,75261
A-3437571, Seawall Blvd,Galveston,Galveston,TX,US,77551
A-2398464,S Greenville Ave,Richardson,Dallas,TX,US,75081
A-970074,Northwest Fwy E,Houston,Harris,TX,US,77040
A-2495887,Zion Rd,Garland,Dallas,TX,US,75043
A-1738290,Apache St,San Antonio,Bexar,TX,US,78207
A-294585,E Stassney Ln,Austin,Travis,TX,US,78744
A-897129,I-69 N,Houston,Harris,TX,US,77093
A-7767865,US-75 S,Dallas,Dallas,TX,US,75243
A-1792970,I-35 N,San Antonio,Bexar,TX,US,78224
A-6977008, Harwin Dr,Houston,Harris,TX,US,77036-2117
A-1021408,Alabama St,Houston,Harris,TX,US,77004-3901
A-3441393, Clay Rd,Houston,Harris,TX,US,77084-4223
A-4060889, California Crossing Rd,Dallas,Dallas,TX,US,75220-7005
A-1369574,Julius Schepps Fwy,Dallas,Dallas,TX,US,75215-3614
A-430769,Harwin Dr,Houston,Harris,TX,US,77036
A-2862625,R L Thornton Fwy E,Garland,Dallas,TX,US,75043
A-287002,S Santa Rosa Ave,San Antonio,Bexar,TX,US,78207
A-2310330,W Martin Luther King Jr Blvd,Austin,Travis,TX,US,78701
A-1227405,S Dairy Ashford Rd,Houston,Harris,TX,US,77099-2326
A-450584,Gray St,Houston,Harris,TX,US,77002
A-2600944,Lamar St,Greenville,Hunt,TX,US,75402
A-3095533,I-35 N,San Antonio,Bexar,TX,US,78233
A-6278878, S Congress Ave,Austin,Travis,TX,US,78704-1728
A-6680222,I-20 E,Duncanville,Dallas,TX,US,75116
A-1554994,John Carpenter Fwy W,Dallas,Tarrant,TX,US,75261
A-432621,Roadrunner Vw,Manor,Travis,TX,US,78653-4922
A-1278831,Mykawa Rd,Houston,Harris,TX,US,77048-3813
A-4148900,TX-130 N,Del Valle,Travis,TX,US,78617
A-2043447,Sharpview Dr,Houston,Harris,TX,US,77074-3324
A-6288560, Bellaire Blvd,Houston,Harris,TX,US,77036-4605
A-6892780, Rodeo Center Blvd,Mesquite,Dallas,TX,US,75149-3904
A-5268339, Westheimer Rd,Houston,Harris,TX,US,77063-4614
A-3093040,W Howard Ln,Austin,Travis,TX,US,78728
A-4005241, Mixon Dr,Dallas,Dallas,TX,US,75220-6340
A-6716166, McKinney Ave,Dallas,Dallas,TX,US,75202
A-2999838,Stanford St,Houston,Harris,TX,US,77006-2928
A-4152745, Metric Blvd,Austin,Travis,TX,US,78758-3117
A-2837975,Tierwester St,Houston,Harris,TX,US,77004-3432
A-2315761,Cameron Rd,Pflugerville,Travis,TX,US,78660-8915
A-2286023,Loop 12 N,Dallas,Dallas,TX,US,75220
A-389386,Bee Cave Rd,Austin,Travis,TX,US,78746
A-1748959,Woodall Rodgers Fwy S,Dallas,Dallas,TX,US,75201
A-4735229,I-69 S,Humble,Harris,TX,US,77396
A-1999461,N Interstate 35,San Antonio,Bexar,TX,US,78218-3725
A-1412936,El Dorado Blvd,Houston,Harris,TX,US,77062-3516
A-2888365,Highway 290 W,Austin,Travis,TX,US,78736-3600
A-7058152,I-45 N,Houston,Harris,TX,US,77060
A-1709586,Simpson Stuart Rd,Dallas,Dallas,TX,US,75241
A-3147230,E Highway 290,Austin,Travis,TX,US,78752
A-1746165,W 15th St,Austin,Travis,TX,US,78701
A-4558180, Mayhall Dr,Austin,Travis,TX,US,78721-3400
A-2788807,Navigation Blvd,Houston,Harris,TX,US,77003-1507
A-3434816,TX-360 S,Grand Prairie,Tarrant,TX,US,75052
A-5399704, W Slaughter Ln,Austin,Travis,TX,US,78748
A-2385288,Brodie Ln,Austin,Travis,TX,US,78748
A-1562536,Sidney Brooks St,San Antonio,Bexar,TX,US,78235
A-798908,Azle Ave,Fort Worth,Tarrant,TX,US,76106-3588
A-6548817,W Overton Rd,Dallas,Dallas,TX,US,75224
A-305151,E Riverside Dr,Austin,Travis,TX,US,78741-1332
A-270971,Quitman St,Houston,Harris,TX,US,77009-7938
A-1213154,E Stassney Ln,Austin,Travis,TX,US,78745
A-280869,E William Cannon Dr,Austin,Travis,TX,US,78745-5737
A-2165099,E Greenridge Dr,Houston,Harris,TX,US,77057-6611
A-387720,Brooklyn Ave,San Antonio,Bexar,TX,US,78215-1637
A-275052,FM 849,Lindale,Smith,TX,US,75771
A-2263038,W 12th St,Dallas,Dallas,TX,US,75208
A-2115236,Barton Springs Rd,Austin,Travis,TX,US,78704
A-7660709,N Central Expy,Dallas,Dallas,TX,US,75204
A-1943189,Highway 360,Fort Worth,Tarrant,TX,US,76155-2123
A-5267705,I-635 E,Dallas,Dallas,TX,US,75243
A-3129443,S Congress Ave,Austin,Travis,TX,US,78704-3524
A-2617583,N Interstate 35,Austin,Travis,TX,US,78752-3805
A-4757332,S Cesar Chavez Blvd,Dallas,Dallas,TX,US,75201
A-1712207,I-37 N,San Antonio,Bexar,TX,US,78223
A-6789160, Briargrove Ln,Dallas,Denton,TX,US,75287-6101
A-3811256,237A,Austin,Travis,TX,US,78723
A-718045,W Highway 71,Austin,Travis,TX,US,78738
A-484130,S Wayside Dr,Houston,Harris,TX,US,77048
A-275182,I-20 E,Grand Prairie,Tarrant,TX,US,75052
A-3594358,I-635 W,Dallas,Dallas,TX,US,75243
A-6320604, E Howard Ln,Manor,Travis,TX,US,78653-4027
A-599467,I-635 W,Dallas,Dallas,TX,US,75238
A-280063,Loop 12 N,Dallas,Dallas,TX,US,75212
A-5900567, Bellfort St,Houston,Harris,TX,US,77061-1963
A-387194,Mopac Expy S,Austin,Travis,TX,US,78735
A-2813301,N Braeswood Blvd,Houston,Harris,TX,US,77025-1915
A-934357,TX-288 S,Lake Jackson,Brazoria,TX,US,77566
A-5066149, Pedernales St,Austin,Travis,TX,US,78702-3952
A-864691,Shiloh Rd,Dallas,Dallas,TX,US,75228-4527
A-6546806,I-635 W,Dallas,Dallas,TX,US,75234
A-268947,S Gessner Rd,Houston,Harris,TX,US,77071-3509
A-5185390,I-35E,Desoto,Dallas,TX,US,75115
A-2151319,Stone,Houston,Harris,TX,US,77061
A-2765651,LBJ Fwy E,Dallas,Dallas,TX,US,75218
A-1290432,Singleton Blvd,Dallas,Dallas,TX,US,75212-3741
A-1636687,I-610 E,Houston,Harris,TX,US,77026
A-263584,LBJ Fwy E,Dallas,Dallas,TX,US,75251
A-4320855,I-30 W,Rockwall,Rockwall,TX,US,75087
A-694394,US-183,Austin,Travis,TX,US,78758
A-1044202,Lyndon B Johnson Fwy,Dallas,Dallas,TX,US,75251
A-1616351,W Wheeler St,Manor,Travis,TX,US,78653-3395
A-693937,E Interstate 30,Garland,Dallas,TX,US,75043-4453
A-2198009,Connally Loop,San Antonio,Bexar,TX,US,78213
A-283302,I-30 W,Fort Worth,Tarrant,TX,US,76116
A-2129657,Fair Oaks Xing,Dallas,Dallas,TX,US,75231
A-510093,I-635 W,Dallas,Dallas,TX,US,75244
A-4308210,Lemmon Ave,Dallas,Dallas,TX,US,75209
A-392614,W Mary St,Austin,Travis,TX,US,78704
A-3851473,I-35E N,Dallas,Dallas,TX,US,75207
A-1962454,Airport Blvd,Austin,Travis,TX,US,78722
A-2603421,Guadalupe St,Austin,Travis,TX,US,78701
A-1562581,Research Blvd,Austin,Travis,TX,US,78758-8429
A-485492,N Sam Houston Tollway E,Houston,Harris,TX,US,77060
A-7503604,US-59 N,Houston,Harris,TX,US,77027
A-7588168,US-75 S,Dallas,Dallas,TX,US,75206
A-7012714,I-20 E,Duncanville,Dallas,TX,US,75116
A-3966390,US-75 S,Richardson,Dallas,TX,US,75080
A-5719720,I-35E N,Lancaster,Dallas,TX,US,75134
A-1752890,Radam Ln,Austin,Travis,TX,US,78745-1114
A-5686548, Maxey Rd,Houston,Harris,TX,US,77015-5517
A-6175000, Quention Dr,Houston,Harris,TX,US,77045-5406
A-2313848,Hirsch Rd,Houston,Harris,TX,US,77016
A-3700697,I-635 E,Dallas,Dallas,TX,US,75243
A-1659725,I-45 N,Houston,Harris,TX,US,77090
A-4454389,N Griffin St,Dallas,Dallas,TX,US,75202
A-5290771,I-30,Dallas,Dallas,TX,US,75212
A-5408316,West Fwy,Aledo,Tarrant,TX,US,76008
A-1868585,Boswell St,Houston,Harris,TX,US,77009-5808
A-435338,Irvington Blvd,Houston,Harris,TX,US,77009
A-3132324,White Horse Trl,Austin,Travis,TX,US,78757
A-3430392,Northwest Fwy E,Houston,Harris,TX,US,77040
A-2255907,E Anderson Ln,Austin,Travis,TX,US,78752
A-3429064,I-45 N,Houston,Harris,TX,US,77022
A-6951807,I-35 S,Austin,Travis,TX,US,78747
A-2122449,E Northwest Hwy,Dallas,Dallas,TX,US,75228
A-263824,Pinecroft Dr,Spring,Montgomery,TX,US,77380
A-2486850,Alabonson Rd,Houston,Harris,TX,US,77088-5305
A-1290446,Village Way,Dallas,Dallas,TX,US,75216-4524
A-1843438,N Bluff Dr,Austin,Travis,TX,US,78745
A-2698883,Dallas North Tollway N,Dallas,Dallas,TX,US,75225
A-2005822,Gessner Rd,Houston,Harris,TX,US,77080
A-6438796, Dallas Dr,Carrollton,Dallas,TX,US,75006-2644
A-7736326,I-35E N,Dallas,Dallas,TX,US,75224
A-3331882,State Loop 375 S,El Paso,El Paso,TX,US,79928
A-4494140, Falls Dr,Dallas,Dallas,TX,US,75211-9111
A-3305391,I-35 S,Austin,Travis,TX,US,78753
A-4495069,N Hampton Rd,Dallas,Dallas,TX,US,75208
A-4748566,SW Loop 820,Fort Worth,Tarrant,TX,US,76126
A-2280393,Poteet Jourdanton Fwy,San Antonio,Bexar,TX,US,78224
A-5197369,I-35 N,Denton,Denton,TX,US,76207
A-2164884,I-30 W,Dallas,Dallas,TX,US,75223
A-1066229,W Sam Houston Tollway S,Houston,Harris,TX,US,77042
A-3874462,Lyndon B Johnson Fwy,Dallas,Dallas,TX,US,75241
A-280748,S Buckner Blvd,Dallas,Dallas,TX,US,75227-6907
A-2715684,US-90 E,Houston,Harris,TX,US,77094
A-3439240,I-20 E,Odessa,Ector,TX,US,79766
A-5141402,TX-45-TOLL,Austin,Travis,TX,US,78719
A-631929,FM 112,Thrall,Williamson,TX,US,76578-8763
A-4641644,I-610,Houston,Harris,TX,US,77054
A-5973441, Canoga Ave,Austin,Travis,TX,US,78724-5727
A-7521740,I-635 S,Mesquite,Dallas,TX,US,75150
A-332809,I-10 W,Houston,Harris,TX,US,77009
A-1596530,Abrams Rd,Dallas,Dallas,TX,US,75243
A-7033055,Airport Fwy E,Irving,Tarrant,TX,US,75062
A-5624758,I-35E,Dallas,Dallas,TX,US,75220
A-2750919,Scott St,Houston,Harris,TX,US,77021
A-1805858,Sunburst Dr,El Paso,El Paso,TX,US,79925
A-272486,I-45 N,Houston,Harris,TX,US,77017
A-6815412,I-610 S,Houston,Harris,TX,US,77029
A-895828,FM 1960 Rd E,Humble,Harris,TX,US,77338-5326
A-3556565,I-45 S,Houston,Harris,TX,US,77009
A-980370,I-635 W,Dallas,Dallas,TX,US,75243
A-1545316,I-35E S,Lewisville,Denton,TX,US,75067
A-2247163,Hammerly Blvd,Houston,Harris,TX,US,77080
A-3425460,US-75 N,Dallas,Dallas,TX,US,75243
A-6830250,I-35E N,Dallas,Dallas,TX,US,75234
A-4038052, Market St Rd,Houston,Harris,TX,US,77015-6033
A-1230461,Spring Valley Rd,Dallas,Dallas,TX,US,75254-2841
A-2639389,W Bend St,Houston,Fort Bend,TX,US,77085-4035
A-2560362,US-75 S,Dallas,Dallas,TX,US,75205
A-1649921,Clearwood Dr,Houston,Harris,TX,US,77075
A-6998728,Chisholm Trail Pkwy,Joshua,Johnson,TX,US,76058
A-295356,Lynden Dr,Houston,Harris,TX,US,77045
A-5068457,I-35W N,Argyle,Denton,TX,US,76226
A-1036205,Kingspoint Rd,Houston,Harris,TX,US,77089
A-386527,E Drexel Ave,San Antonio,Bexar,TX,US,78210-2908
A-429911,Alief Clodine Rd,Houston,Harris,TX,US,77082-5806
A-1936392,W 18th St,Houston,Harris,TX,US,77008-1207
A-6109004,I-35W N,Fort Worth,Tarrant,TX,US,76104
A-1697338,Jackson St,Houston,Harris,TX,US,77003-5019
A-294118,Middle Fiskville Rd,Austin,Travis,TX,US,78753-3829
A-266551,I-20 W,Weatherford,Parker,TX,US,76087
A-2360981,Sage Rd,Houston,Harris,TX,US,77056
A-6418704, Eigel St,Houston,Harris,TX,US,77007-3419
A-5362218,Mopac Expy N,Austin,Travis,TX,US,78746
A-1864760,I-20 E,Dallas,Dallas,TX,US,75232
A-1441707,W Sam Houston Tollway N,Houston,Harris,TX,US,77072
A-3250779,Briarwest Blvd,Houston,Harris,TX,US,77077
A-5576187, Clearlake Dr,Dallas,Dallas,TX,US,75225
A-3429136,I-35W S,Fort Worth,Tarrant,TX,US,76134
A-3813843,I-35E N,Dallas,Dallas,TX,US,75224
A-2628974,N Lamar Blvd,Austin,Travis,TX,US,78753
A-5418251, Fondren Rd,Houston,Harris,TX,US,77036-2904
A-435388,US-59 N,Houston,Harris,TX,US,77026
A-389137,Broadway St,San Antonio,Bexar,TX,US,78215-1223
A-1685995,I-30 E,Dallas,Dallas,TX,US,75228
A-7612967,I-45 N,Houston,Harris,TX,US,77017
A-6753787, Evelyn St,Houston,Harris,TX,US,77009
A-1647199,President George Bush Tpke E,Dallas,Denton,TX,US,75287
A-1669765,Almeda Rd,Houston,Harris,TX,US,77004-7303
A-566074,I-635 Express Toll,Dallas,Dallas,TX,US,75243
A-6953562, Blackburn St,Dallas,Dallas,TX,US,75204-3111
A-852720,Richmond Ave,Houston,Harris,TX,US,77042
A-3216386,US-67 S,Dallas,Dallas,TX,US,75228
A-3027955,TX-16 S,Von Ormy,Bexar,TX,US,78073
A-2467356,S Kirkwood Rd,Houston,Harris,TX,US,77077
A-4774199,E Lancaster Ave,Fort Worth,Tarrant,TX,US,76112
A-5814497,Southwest Fwy,Houston,Harris,TX,US,77074
A-2896599,Yale St,Houston,Harris,TX,US,77018-5930
A-3611891,I-45 N,La Marque,Galveston,TX,US,77568
A-4558642,US-80 E,Mesquite,Dallas,TX,US,75149
A-1616658,Harrisburg Blvd,Houston,Harris,TX,US,77012-1603
A-702808,TX-183 Express Toll,Irving,Dallas,TX,US,75062
A-7525779,I-410 W,San Antonio,Bexar,TX,US,78230
A-4480260,I-20 E,Dallas,Dallas,TX,US,75241
A-2446590,Manor Rd,Austin,Travis,TX,US,78723
A-5363251,Tom Landry Fwy,Dallas,Dallas,TX,US,75207
A-1662897,Elam Rd,Dallas,Dallas,TX,US,75217
A-332472,Houston Ave,Houston,Harris,TX,US,77007-7738
A-3859228,E Alsbury Blvd,Burleson,Tarrant,TX,US,76028
A-2570532,Cedar Springs Rd,Dallas,Dallas,TX,US,75235-5811
A-1392660,I-37 N,San Antonio,Bexar,TX,US,78223
A-4893036,I-635 E,Dallas,Dallas,TX,US,75240
A-286642,Rigsby Ave,San Antonio,Bexar,TX,US,78222-1346
A-2667328,Brinkman St,Houston,Harris,TX,US,77018-1433
A-3156584,Katy Tollway,Houston,Harris,TX,US,77024
A-3174349,Wells Branch Pkwy,Austin,Travis,TX,US,78728-6911
A-3755428, W Phillips St,Tyler,Smith,TX,US,75701-1644
A-3664832, FM-973,Coupland,Travis,TX,US,78615
A-5659646, Andrew Zilker Rd,Austin,Travis,TX,US,78746
A-4398297,Marvin D Love Fwy,Dallas,Dallas,TX,US,75237
A-1674785,W 11th St,Houston,Harris,TX,US,77008-6857
A-270475,W 31st 1/2 St,Austin,Travis,TX,US,78705
A-2560443,Harwin Dr,Houston,Harris,TX,US,77072
A-5713799, John W Carpenter Fwy,Dallas,Dallas,TX,US,75247-4836
A-2651049,I-10 W,El Paso,El Paso,TX,US,79915
A-1126327,S Central Expy,Dallas,Dallas,TX,US,75216-4000
A-1574206,I-45 N,Dallas,Dallas,TX,US,75216
A-6693035, Bissonnet St,Houston,Harris,TX,US,77074-6009
A-299867,Manana Dr,Dallas,Dallas,TX,US,75220
A-3179115,Blanco Rd,San Antonio,Bexar,TX,US,78232
A-611989,Dunbury Dr,Austin,Travis,TX,US,78723-1816
A-7655091,I-30 E,Fort Worth,Tarrant,TX,US,76103
A-1604323,I-45 S,Houston,Harris,TX,US,77090
A-4986096, Rivercrest Rd,Lufkin,Angelina,TX,US,75901
A-2906168,Blanco St,Austin,Travis,TX,US,78703-4911
A-4384639, N FM 620,Austin,Travis,TX,US,78726
A-3975331,Ronald Reagan Memorial Hwy,Fort Worth,Tarrant,TX,US,76134
A-1715197,Royal Ln,Dallas,Dallas,TX,US,75231
A-587530,E Houston St,San Antonio,Bexar,TX,US,78219
A-1741214,N Jim Miller Rd,Dallas,Dallas,TX,US,75217
A-2982074,I-45 N,Houston,Harris,TX,US,77090
A-2020452,McKenzie Dr,Austin,Travis,TX,US,78719
A-1541263,I-35E N,Dallas,Dallas,TX,US,75229
A-1712703,Cullen Blvd,Houston,Harris,TX,US,77047-4819
A-824998,W Jefferson Blvd,Dallas,Dallas,TX,US,75211-3861
A-5340536,Cotillion Dr,Houston,Harris,TX,US,77060
A-741078,Joe Battle Blvd,El Paso,El Paso,TX,US,79928
A-289036,US-59 N,Houston,Harris,TX,US,77026
A-5425755,I-635 W,Dallas,Dallas,TX,US,75230
A-7145730, Pellicano Dr,El Paso,El Paso,TX,US,79936-6828
A-2226873,I-35W S,Fort Worth,Tarrant,TX,US,76177
A-1999967,Hopper Rd,Houston,Harris,TX,US,77037-3517
A-6864593,S Interstate 45 Service Rd,Hutchins,Dallas,TX,US,75141
A-3570438,I-410 W,San Antonio,Bexar,TX,US,78213
A-6878456, Airport Blvd,Austin,Travis,TX,US,78721
A-2138980,I-35E S,Dallas,Dallas,TX,US,75207
A-267525,S 1st St,Austin,Travis,TX,US,78704-4250
A-286475,Granville Dr,Houston,Harris,TX,US,77091
A-593441,Ranch Road 620 N,Austin,Williamson,TX,US,78717-1101
A-2935889,W Alabama St,Houston,Harris,TX,US,77056-5902
A-3070798,Elgin St,Houston,Harris,TX,US,77004-2803
A-2662685,N Zaragoza Rd,El Paso,El Paso,TX,US,79938-7919
A-1846483,N Sam Houston Pkwy E,Humble,Harris,TX,US,77396
A-306305,Fondren Rd,Houston,Harris,TX,US,77085
A-3444892,I-20 W,Mesquite,Dallas,TX,US,75181
A-1846144,McNeil Rd,Round Rock,Williamson,TX,US,78664
A-887869,Boudreaux Rd,Tomball,Harris,TX,US,77375
A-4391473,I-35,Dilley,Frio,TX,US,78017
A-5206627,I-10,Salt Flat,Culberson,TX,US,79847
A-2229391,Sam Rayburn Tollway S,The Colony,Denton,TX,US,75056
A-2551405,Bullick Hollow Rd,Austin,Travis,TX,US,78732
A-2682569,N Lamar Blvd,Austin,Travis,TX,US,78757
A-1778541,Greenville Ave,Dallas,Dallas,TX,US,75243
A-293514,Bernal Dr,Dallas,Dallas,TX,US,75212-4409
A-5214771, N San Jacinto St,Houston,Harris,TX,US,77002
A-5912021,I-635 W,Dallas,Dallas,TX,US,75234
A-2788958,N Davis Dr,El Paso,El Paso,TX,US,79907-6108
A-1258159,I-10 W,Houston,Harris,TX,US,77007
A-3172297,Will Clayton Pkwy,Houston,Harris,TX,US,77032-5240
A-3626120,I-45 N,Houston,Harris,TX,US,77023
A-2560370,Turtle Creek Blvd,Dallas,Dallas,TX,US,75219
A-1317219,I-45 N,Dallas,Dallas,TX,US,75241
A-4549636,235A,Austin,Travis,TX,US,78702
A-5024916, Skyfrost Dr,Dallas,Dallas,TX,US,75253-5122
A-393533,Shady Trl,Dallas,Dallas,TX,US,75220-2504
A-3402046,E Euclid Ave,San Antonio,Bexar,TX,US,78212-4414
A-277521,S Kirkwood Rd,Houston,Harris,TX,US,77077
A-2535148,Walzem Rd,San Antonio,Bexar,TX,US,78218
A-1186095,I-35 N,San Antonio,Bexar,TX,US,78224
A-305388,N Central Expy,Dallas,Dallas,TX,US,75231
A-1278845,I-45 N,Houston,Harris,TX,US,77090
A-4067887,I-35E,Lewisville,Denton,TX,US,75067
A-894270,I-35E N,Dallas,Dallas,TX,US,75229
A-3218589,Katy Tollway,Houston,Harris,TX,US,77079
A-1329965,W 35th St,Austin,Travis,TX,US,78731
A-6877137, FM 1327,Buda,Travis,TX,US,78610-9647
A-6644770,I-35 S,Austin,Travis,TX,US,78745
A-3983367, W Slaughter Ln,Austin,Travis,TX,US,78748-1665
A-391676,I-45 N,Houston,Harris,TX,US,77060
A-4066007,I-10 E,Clint,El Paso,TX,US,79836
A-1935950,Elmont Dr,Austin,Travis,TX,US,78741
A-2531097,I-35E S,Waxahachie,Ellis,TX,US,75165
A-1729747,Reforma Dr,San Antonio,Bexar,TX,US,78224
A-5097472,International Pkwy N,Dallas,Tarrant,TX,US,75261
A-514325,S Sam Houston Rd,Mesquite,Dallas,TX,US,75149
A-1065970,Tom Landry Fwy,Arlington,Tarrant,TX,US,76011
A-2179651,I-35 N,Austin,Travis,TX,US,78744
A-486716,Duval Rd,Austin,Travis,TX,US,78759
A-730475,N Stemmons Fwy,Dallas,Dallas,TX,US,75207
A-1914912,S Pleasant Valley Rd,Austin,Travis,TX,US,78744
A-5249609, Little Rd,Arlington,Tarrant,TX,US,76017-1039
A-5823744,US-75 S,Richardson,Dallas,TX,US,75080
A-5862073, Fairway Dr,Houston,Harris,TX,US,77087-2140
A-508620,Perrin Beitel Rd,San Antonio,Bexar,TX,US,78233
A-1875010,Greens Pkwy,Houston,Harris,TX,US,77067-4527
A-270551,Ranch Road 2222,Austin,Travis,TX,US,78730
A-1015158,Airport Blvd,Austin,Travis,TX,US,78722
A-3438300,I-45 N,Houston,Harris,TX,US,77034
A-2999821,Highway 6 S,Houston,Harris,TX,US,77077-1304
A-2884424,I-45 N,Rice,Navarro,TX,US,75155
A-5381873, Leon Dr,Tyler,Smith,TX,US,75702
A-300495,Westheimer Rd,Houston,Harris,TX,US,77042
A-2648291,S Gessner Rd,Houston,Harris,TX,US,77036
A-1756092,Delta Dr,El Paso,El Paso,TX,US,79905-5508
A-4950399, N Coit Rd,Dallas,Dallas,TX,US,75248-5721
A-6908336,I-35W N,Fort Worth,Tarrant,TX,US,76177
A-2906469,Bissonnet St,Houston,Harris,TX,US,77074
A-5715593, E 32nd St,Bryan,Brazos,TX,US,77803-6909
A-1452512,Pleasanton Rd,San Antonio,Bexar,TX,US,78214-1399
A-2719388,I-10 E,Baytown,Harris,TX,US,77521
A-6048159, Sun Fire Blvd,El Paso,El Paso,TX,US,79938
A-2853607,E Berry St,Fort Worth,Tarrant,TX,US,76119
A-388537,W Mockingbird Ln,Dallas,Dallas,TX,US,75247
A-2884447,I-635 S,Dallas,Dallas,TX,US,75228
A-394366,Broadway St,San Antonio,Bexar,TX,US,78209
A-3226651,Willers Way,Austin,Travis,TX,US,78748-5930
A-5563311,W William Cannon Dr,Austin,Travis,TX,US,78745
A-6785845,I-10 E,San Antonio,Bexar,TX,US,78207
A-2891560,John Phelan Dr,El Paso,El Paso,TX,US,79936-6853
A-3444916,US-59 S,Houston,Harris,TX,US,77027
A-1826260,I-45 N,Houston,Harris,TX,US,77034
A-1138015,US-183 N,Austin,Travis,TX,US,78759
A-7599567,S Freeway N,Houston,Harris,TX,US,77047
A-3164054,S Congress Ave,Austin,Travis,TX,US,78745-3102
A-1807941,Redd St,Austin,Travis,TX,US,78745
A-3440986,I-45 S,Webster,Harris,TX,US,77598
A-3201990,Joe Battle Blvd,El Paso,El Paso,TX,US,79938-4659
A-5216454, E 12th St,Austin,Travis,TX,US,78702-2501
A-304846,Denton Hwy,Haltom City,Tarrant,TX,US,76117
A-7578817,Dallas North Tollway N,Dallas,Dallas,TX,US,75225
A-3296331,Fondren Rd,Houston,Harris,TX,US,77063
A-2297260,E Northwest Hwy,Dallas,Dallas,TX,US,75228-8005
A-1395706,Hemlock Ave,Dallas,Dallas,TX,US,75231
A-875664,LBJ Express,Dallas,Dallas,TX,US,75240
A-3224188,Northwest Fwy,Houston,Harris,TX,US,77040-5118
A-4301228,I-45,Dallas,Dallas,TX,US,75226
A-1667272,Tomanet Trl,Austin,Travis,TX,US,78727
A-1340249,Sunnyvale St,Dallas,Dallas,TX,US,75216-4656
A-5090013,I-30,Rockwall,Rockwall,TX,US,75087
A-1854864,Blackburn St,Dallas,Dallas,TX,US,75204
A-2793262,Mopac Expy S,Austin,Travis,TX,US,78735
A-2562452,S Buckner Blvd,Dallas,Dallas,TX,US,75227
A-5726092,LBJ Express,Dallas,Dallas,TX,US,75243
A-6602323, Harry Hines Blvd,Dallas,Dallas,TX,US,75229-4606
A-3436063, Sylvan Ave,Dallas,Dallas,TX,US,75208-1828
A-6388081, Chimney Rock Rd,Houston,Harris,TX,US,77035-2904
A-5231552, Chimney Rock Rd,Houston,Harris,TX,US,77035-4409
A-7734038,US-75 S,Dallas,Dallas,TX,US,75204
A-675622,I-69 S,Sugar Land,Fort Bend,TX,US,77478
A-3070477,Manchaca Rd,Austin,Travis,TX,US,78748
A-3782911,US-67,Duncanville,Dallas,TX,US,75137
A-5498418,Shadowdale Dr,Houston,Harris,TX,US,77043
A-265666,Convict Hill Rd,Austin,Travis,TX,US,78749
A-6896869, San Jacinto Blvd,Austin,Travis,TX,US,78701-3235
A-296228,Higgins Ave,Dallas,Dallas,TX,US,75211
A-3386935,I-820 N,Fort Worth,Tarrant,TX,US,76118
A-3189995,Hiram Clarke Rd,Houston,Harris,TX,US,77045
A-4794420, Congress Ave,Austin,Travis,TX,US,78701-3542
A-452740,Chimney Rock Rd,Houston,Harris,TX,US,77056
A-290695,W Belt Line Rd,Desoto,Dallas,TX,US,75115-3627
A-1875007,Bellaire Blvd,Houston,Harris,TX,US,77072-2453
A-5947290, Forest Ln,Dallas,Dallas,TX,US,75243-6009
A-2726071,US-287 S,Fort Worth,Tarrant,TX,US,76137
A-1627711,Ferguson Rd,Dallas,Dallas,TX,US,75228
A-3435095,I-610 S,Houston,Harris,TX,US,77027
A-2645679,I-635 W,Dallas,Dallas,TX,US,75238
A-4668676, Harvest Hill Rd,Dallas,Dallas,TX,US,75230-1251
A-4154452, Holly View Dr,Houston,Harris,TX,US,77091-2722
A-3250586,E University Dr,Denton,Denton,TX,US,76208-1218
A-2056294,S Cockrell Hill Rd,Dallas,Dallas,TX,US,75236-2024
A-6328201, Forest Ln,Dallas,Dallas,TX,US,75243-4201
A-4913741,Loop 12 N,Irving,Dallas,TX,US,75062
A-4373269, Westpoint Blvd,Fort Worth,Tarrant,TX,US,76108
A-3241969,TX-183 E,Irving,Dallas,TX,US,75062
A-7627950,US-90 E,Houston,Harris,TX,US,77007
A-2127270,S State Highway 161,Grand Prairie,Dallas,TX,US,75052
A-6599838, Beckleymeade Ave,Dallas,Dallas,TX,US,75232
A-6878366, Sunnyside Ln,Wichita Falls,Wichita,TX,US,76301-8173
A-2411086,N Harwood St,Dallas,Dallas,TX,US,75201-2905
A-1031746,I-20 E,Forney,Kaufman,TX,US,75126
A-1276266,I-20 W,Fort Worth,Tarrant,TX,US,76119
A-1856970,Corpus Christi Dr,Austin,Travis,TX,US,78729
A-2202449,Clinton Dr,Houston,Harris,TX,US,77015
A-5297395, Edwards St,Houston,Harris,TX,US,77007-6212
A-1750196,E Loop 820 S,Fort Worth,Tarrant,TX,US,76119-4465
A-2810241,US-183 S,Austin,Travis,TX,US,78759
A-5802356,Starlight Rd,Dallas,Dallas,TX,US,75220
A-334435,E 30th St,Austin,Travis,TX,US,78722-2312
A-2570347,W Highway 290,Austin,Travis,TX,US,78749
A-1433103,S Haskell Ave,Dallas,Dallas,TX,US,75223
A-1331946,Greens Rd,Houston,Harris,TX,US,77032
A-722840,Peerless St,Houston,Harris,TX,US,77021-4610
A-536381,Old TX-20,Manor,Travis,TX,US,78653
A-2027743,I-35E S,Lake Dallas,Denton,TX,US,75065
A-2391633,Wilcrest Dr,Houston,Harris,TX,US,77079
A-2537925,US-281 N,San Antonio,Bexar,TX,US,78215
A-4218782, Cedar Mesa Dr,Houston,Harris,TX,US,77034-3755
A-486004,Broadway St,San Antonio,Bexar,TX,US,78209
A-2093149,I-20 E,Terrell,Kaufman,TX,US,75160
A-281041,I-45 S,Houston,Harris,TX,US,77017
A-2069250,I-35 S,Austin,Travis,TX,US,78753
A-2268187,S FM 973,Del Valle,Travis,TX,US,78617
A-1403038,Almeda Rd,Houston,Harris,TX,US,77004-5657
A-2596703,TX-121 S,Fort Worth,Tarrant,TX,US,76111
A-5754208,I-10 E,El Paso,El Paso,TX,US,79905
A-3432292,I-410 S,San Antonio,Bexar,TX,US,78238
A-7472859, Highway 71 E,Del Valle,Travis,TX,US,78617-3213
A-5991129, S Lamar Blvd,Austin,Travis,TX,US,78704-3327
A-433178,Allandale Rd,Austin,Travis,TX,US,78756
A-7017347,I-30 W,Caddo Mills,Hunt,TX,US,75135
A-5526943,Mosley Rd,Houston,Harris,TX,US,77017
A-1418245,Woodlands Pkwy,Spring,Montgomery,TX,US,77381
A-2939981,Westheimer Rd,Houston,Harris,TX,US,77063-4212
A-4485043, FM-973,Coupland,Williamson,TX,US,78615-4862
A-5008613,I-635 W,Dallas,Dallas,TX,US,75243
A-280043,Main St,Houston,Harris,TX,US,77030-4405
A-3039036,I-20 E,Lancaster,Dallas,TX,US,75134
A-1938611,S Gessner Rd,Houston,Harris,TX,US,77036
A-1099349,I-635 S,Mesquite,Dallas,TX,US,75149
A-2382857,I-35 S,San Antonio,Bexar,TX,US,78239
A-3568648,Nitrogen Blvd,Houston,Harris,TX,US,77086
A-3166504,S Interstate 35,Austin,Travis,TX,US,78741
A-4026605, W Slaughter Ln,Austin,Travis,TX,US,78748
A-7178782, W William Cannon Dr,Austin,Travis,TX,US,78735
A-2673323,San Marcos St,Austin,Travis,TX,US,78701
A-2701144,Hollister St,Houston,Harris,TX,US,77040
A-1005845,Blue Mound Rd,Fort Worth,Tarrant,TX,US,76106
A-282145,Westheimer Rd,Houston,Harris,TX,US,77057-4416
A-452481,Mesa Dr,Humble,Harris,TX,US,77396-2952
A-712937,Waldo,Houston,Harris,TX,US,77036
A-434677,S Gessner Rd,Houston,Harris,TX,US,77036-1601
A-1717411,Connally Loop,San Antonio,Bexar,TX,US,78238
A-796474,Allwood St,Houston,Harris,TX,US,77016
A-5286591,Autobahn Dr,Dallas,Dallas,TX,US,75237
A-4295496, Walnut Bend Ln,Houston,Harris,TX,US,77042-4818
A-3009556,I-20 E,Lancaster,Dallas,TX,US,75134
A-2636473,Balcones Dr,Austin,Travis,TX,US,78731-4907
A-1933482,Anthony St,Austin,Travis,TX,US,78702-4562
A-2143580,Spur 408 N,Dallas,Dallas,TX,US,75236
A-3161946,Almeda Rd,Houston,Harris,TX,US,77004-4903
A-431237,Leona St,Austin,Travis,TX,US,78722-2525
A-4048376,TX-130 S,Austin,Travis,TX,US,78719
A-516417,I-10,Seguin,Guadalupe,TX,US,78155
A-6633875, Greenville Ave,Dallas,Dallas,TX,US,75206-7415
A-7043309,I-35 N,Austin,Travis,TX,US,78744
A-7185365,I-35E N,Dallas,Dallas,TX,US,75224
A-6828469,E Riverside Dr,Austin,Travis,TX,US,78704
A-1859621,N Henderson Ave,Dallas,Dallas,TX,US,75206-6405
A-2181864,Hueco Ave,El Paso,El Paso,TX,US,79903-3011
A-1441714,I-45 S,Webster,Harris,TX,US,77598
A-4162120, S Jupiter Rd,Garland,Dallas,TX,US,75041-3806
A-4269944,E Highway 290,Austin,Travis,TX,US,78723
A-6425787,US-75 S,Plano,Collin,TX,US,75075
A-649588,Lexington St,Manor,Travis,TX,US,78653
A-5876998, E Mockingbird Ln,Dallas,Dallas,TX,US,75214-2506
A-2056038,S New Braunfels Ave,San Antonio,Bexar,TX,US,78210-3014
A-520504,I-10,San Antonio,Bexar,TX,US,78219
A-5732293,LBJ Express,Dallas,Dallas,TX,US,75240
A-2192889,I-610 N,Houston,Harris,TX,US,77024
A-1561453,E Lovers Ln,Dallas,Dallas,TX,US,75206
A-7058330,I-30 E,Rowlett,Dallas,TX,US,75088
A-6390578,US-75 N,Plano,Collin,TX,US,75074
A-7470216,US-77 N,Lancaster,Dallas,TX,US,75134
A-3041712,Main St,Houston,Harris,TX,US,77035-5447
A-2745699,James Casey St,Austin,Travis,TX,US,78745
A-707903,Steiner Ranch Blvd,Austin,Travis,TX,US,78732
A-2923669,Clinton Dr,Houston,Harris,TX,US,77029
A-4468105, S Zang Blvd,Dallas,Dallas,TX,US,75224
A-392643,S Marlborough Ave,Dallas,Dallas,TX,US,75208-5703
A-7129122,I-35E S,Dallas,Dallas,TX,US,75229
A-2745770,W Parmer Ln,Austin,Travis,TX,US,78727
A-2611719,FM 969,Austin,Travis,TX,US,78725
A-387405,E William Cannon Dr,Austin,Travis,TX,US,78744
A-2217343,S Hampton Rd,Dallas,Dallas,TX,US,75237
A-451836,W 45th St,Austin,Travis,TX,US,78731-5552
A-4391066,Northwest Fwy E,Houston,Harris,TX,US,77065
A-7253586, W Interstate 30,Garland,Dallas,TX,US,75043-5702
A-1227399,N Chenevert St,Houston,Harris,TX,US,77002-1300
A-1987944,W Gulf Bank Rd,Houston,Harris,TX,US,77088-4314
A-1227396,S Gessner Rd,Houston,Harris,TX,US,77036
A-389489,Imperial Valley Dr,Houston,Harris,TX,US,77060
A-5147430, N Loop Dr,El Paso,El Paso,TX,US,79907-4520
A-1785384,S Acres Dr,Houston,Harris,TX,US,77048-1203
A-5112136,I-20,Dallas,Dallas,TX,US,75237
A-5825769,I-20 E,Dallas,Dallas,TX,US,75241
A-265201,W Slaughter Ln,Austin,Travis,TX,US,78748
A-6865840, US Highway 183 S,Austin,Travis,TX,US,78719
A-2801400,S Saint Augustine Dr,Dallas,Dallas,TX,US,75217
A-4659042,US-281 S,San Antonio,Bexar,TX,US,78212
A-2434384,I-10 E,El Paso,El Paso,TX,US,79915
A-2973925,Hansford Dr,Austin,Travis,TX,US,78753
A-3823596,I-635 E,Dallas,Dallas,TX,US,75238
A-7205392,I-35 N,Georgetown,Williamson,TX,US,78626
A-5665105, E 5th St,Tyler,Smith,TX,US,75701-3552
A-1402830,N Central Expy,Dallas,Dallas,TX,US,75231
A-1724592,Wurzbach Pkwy,San Antonio,Bexar,TX,US,78233
A-3079025,W Wells Branch Pkwy,Austin,Travis,TX,US,78728
A-2642919,Connally Loop,San Antonio,Bexar,TX,US,78218
A-981801,I-45 N,Houston,Harris,TX,US,77009
A-4639745,US-287,Henrietta,Clay,TX,US,76365
A-3149714,I-35W S,Fort Worth,Tarrant,TX,US,76140
A-2694506,I-45 N,Houston,Harris,TX,US,77087
A-281263,Fondren Rd,Houston,Harris,TX,US,77036
A-3031537,Tierra Venado Dr,El Paso,El Paso,TX,US,79938-5340
A-3159709,McCombs St,El Paso,El Paso,TX,US,79924-5017
A-2283165,Daffan Ln,Austin,Travis,TX,US,78724-1600
A-279098,E Oltorf St,Austin,Travis,TX,US,78704-5639
A-1407200,Dessau Rd,Austin,Travis,TX,US,78754
A-1637545,Canton St,Dallas,Dallas,TX,US,75226
A-264756,Westfall Ave,San Antonio,Bexar,TX,US,78210-2258
A-894913,N Cockrell Hill Rd,Dallas,Dallas,TX,US,75211
A-4219987,Gulf Fwy,Houston,Harris,TX,US,77087
A-799410,Rankin Rd,Houston,Harris,TX,US,77073
A-4178359, S Broadway Ave,Tyler,Smith,TX,US,75701-1609
A-2690838,Sweetwater Ln,Houston,Harris,TX,US,77037
A-3308994,Raynolds St,El Paso,El Paso,TX,US,79903
A-7210470,I-10 W,Baytown,Harris,TX,US,77520
A-2177895,Grand Ave,Dallas,Dallas,TX,US,75215
A-3276027,Parker Rd,Houston,Harris,TX,US,77093-5815
A-1181638,Bock Rd,Buda,Travis,TX,US,78610-5203
A-1962816,N Durham Dr,Houston,Harris,TX,US,77008-6520
A-6350477,Limestone St,Houston,Harris,TX,US,77092
A-2169109,W Dallas St,Houston,Harris,TX,US,77019-4548
A-2429038,Nacogdoches Rd,San Antonio,Bexar,TX,US,78266
A-2862427,Highway 114,Roanoke,Denton,TX,US,76262
A-488482,US-90 E,Houston,Harris,TX,US,77079
A-1694701,Gulf Fwy,Dickinson,Galveston,TX,US,77539
A-1931773,Inwood Rd,Dallas,Dallas,TX,US,75229
A-1119593,I-610 E,Houston,Harris,TX,US,77026
A-7632533,Katy Tollway,Houston,Harris,TX,US,77079
A-1854679,Northeast Dr,Austin,Travis,TX,US,78723-1439
A-2486822,Kirby Dr,Houston,Harris,TX,US,77005-3426
A-1228797,Centennial Rd,Forest Hill,Tarrant,TX,US,76119-7102
A-2073851,Singleton Blvd,Dallas,Dallas,TX,US,75212
A-273771,E Basse Rd,San Antonio,Bexar,TX,US,78209-3204
A-6542264,Dallas North Tollway N,Dallas,Collin,TX,US,75287
A-1884271,Westella Dr,Houston,Harris,TX,US,77077-3701
A-4056709,I-45 S,Dallas,Dallas,TX,US,75216
A-4988656, Old Spanish Trl,Houston,Harris,TX,US,77021
A-300482,McKinney Falls Pkwy,Austin,Travis,TX,US,78744
A-2691681,Avery Club Dr,Austin,Williamson,TX,US,78717-3823
A-266443,E William Cannon Dr,Austin,Travis,TX,US,78744
A-2908749,Airport Blvd,Austin,Travis,TX,US,78702-3152
A-3875509,I-10,Fort Stockton,Pecos,TX,US,79735
A-389905,I-35 N,San Antonio,Bexar,TX,US,78233
A-2825463,E Riverside Dr,Austin,Travis,TX,US,78741
A-2524714,Wells Branch Pkwy,Austin,Travis,TX,US,78728
A-3098414,E Parmer Ln,Austin,Travis,TX,US,78754
A-2696732,I-10 W,Houston,Harris,TX,US,77079
A-2307912,S Crowdus St,Dallas,Dallas,TX,US,75226
A-1596516,Oak Lawn Ave,Dallas,Dallas,TX,US,75219
A-2611612,Applewhite Rd,San Antonio,Bexar,TX,US,78264-3471
A-1606284,I-35 N,Austin,Travis,TX,US,78753
A-334640,US-183 S,Austin,Travis,TX,US,78752
A-3611202,US-75 S,Dallas,Dallas,TX,US,75206
A-4108339,W Airport Fwy,Irving,Dallas,TX,US,75062
A-335093,Yale St,Houston,Harris,TX,US,77007-2527
A-281562,S Lamar Blvd,Austin,Travis,TX,US,78704
A-7010433,I-20 E,Dallas,Dallas,TX,US,75241
A-2935573,E 7th St,Austin,Travis,TX,US,78701-3316
A-2918138,I-410 E,San Antonio,Bexar,TX,US,78218
A-6695249, Ridgecrest Rd,Dallas,Dallas,TX,US,75231-6921
A-1342260,South Fwy,Houston,Harris,TX,US,77004
A-3439533, Chestnut St,Dallas,Dallas,TX,US,75226-1961
A-865029,US-281 S,San Antonio,Bexar,TX,US,78232
A-1261351,Royal Ln,Dallas,Dallas,TX,US,75229
A-4978490,Horizon Rd,Rockwall,Rockwall,TX,US,75032
A-2419693,Ash Ln,Dallas,Dallas,TX,US,75226
A-913270,E Lovers Ln,Dallas,Dallas,TX,US,75206
A-3166907,Fairbanks Dr,El Paso,El Paso,TX,US,79924-3906
A-5561113,Northwest Expy,San Antonio,Bexar,TX,US,78201
A-451999,S Saint Marys St,San Antonio,Bexar,TX,US,78210-1635
A-3435123,I-20 E,Fort Worth,Tarrant,TX,US,76140
A-3048900,Dallas North Tollway N,Dallas,Collin,TX,US,75287
A-4678236, Bingle Rd,Houston,Harris,TX,US,77055-1004
A-2159973,N Hawkins St,Dallas,Dallas,TX,US,75201
A-2063125,Woodrow Ave,Austin,Travis,TX,US,78756-2109
A-386761,Ross Rd,Del Valle,Travis,TX,US,78617
A-2502964,W Spring Valley Rd,Richardson,Dallas,TX,US,75080
A-1451173,Wells Port Dr,Austin,Travis,TX,US,78728-6826
A-274312,Hawn Fwy E,Dallas,Dallas,TX,US,75253
A-6324839, The Lakes Blvd,Pflugerville,Travis,TX,US,78660-3711
A-990662,South Loop E,Houston,Harris,TX,US,77033
A-5308495, Woodway Dr,Houston,Harris,TX,US,77056-1302
A-2903807,Harwin Dr,Houston,Harris,TX,US,77072-1536
A-1709803,Roark Rd,Houston,Harris,TX,US,77099-3500
A-1418008,US Highway 183 S,Austin,Travis,TX,US,78741
A-3093331,S Sam Houston Tollway W,Houston,Harris,TX,US,77075
A-276001,Lockwood Dr,Houston,Harris,TX,US,77020
A-279269,Woodchase Dr,Houston,Harris,TX,US,77042
A-2258952,Harris Branch Pkwy,Austin,Travis,TX,US,78754
A-6932040,US-290,Austin,Travis,TX,US,78704
A-7050083,I-35E N,Carrollton,Dallas,TX,US,75006
A-3438302,S Main St,Stafford,Fort Bend,TX,US,77477
A-1249074,Gus Thomasson Rd,Mesquite,Dallas,TX,US,75150
A-1775743,W Highway 290,Austin,Travis,TX,US,78735-8303
A-7001238,E Sam Houston Tollway N,Pasadena,Harris,TX,US,77503
A-453285,Ranch Road 2222,Austin,Travis,TX,US,78750
A-7126146,W Sam Houston Tollway N,Houston,Harris,TX,US,77064
A-529456,Sunnyvale St,Dallas,Dallas,TX,US,75216
A-5364136,South Fwy,Houston,Harris,TX,US,77004
A-1285880,Crockett St,Channelview,Harris,TX,US,77530-4350
A-973873,Market St,Houston,Harris,TX,US,77020-6428
A-999269,Antoine Dr,Houston,Harris,TX,US,77091-2616
A-968265,Stout Dr,San Antonio,Bexar,TX,US,78219-4336
A-453300,Bluebonnet Ln,Austin,Travis,TX,US,78704-4029
A-7611858,Cleburne St,Houston,Harris,TX,US,77004
A-3028505,Cook Rd,Houston,Harris,TX,US,77072
A-2316087,Dumfries Dr,Houston,Harris,TX,US,77096-4603
A-761329,I-20 E,Dallas,Dallas,TX,US,75236
A-2705954,FM 969,Austin,Travis,TX,US,78724-5307
A-435753,US-59 S,Houston,Harris,TX,US,77057
A-298751,R L Thornton Fwy E,Dallas,Dallas,TX,US,75215
A-3117031,I-610 W,Houston,Harris,TX,US,77025
A-430642,Manchaca Rd,Austin,Travis,TX,US,78748
A-2197174,Howard Dr,Houston,Harris,TX,US,77017
A-4020568,Tom Landry Fwy,Grand Prairie,Dallas,TX,US,75050
A-2464283,I-45 N,Spring,Harris,TX,US,77373
A-511015,N Interstate 35,Austin,Travis,TX,US,78753-6438
A-3172169,Mopac Expy S,Austin,Travis,TX,US,78703
A-6318837, Central Fwy,Wichita Falls,Wichita,TX,US,76306-2812
A-525423,I-820 E,Hurst,Tarrant,TX,US,76053
A-6884933, Memorial Ct,Houston,Harris,TX,US,77007-4907
A-1993398,S Saginaw Blvd,Saginaw,Tarrant,TX,US,76179-2636
A-1221584,I-635 E,Dallas,Dallas,TX,US,75238
A-1498657,Congress St,Houston,Harris,TX,US,77002-2322
A-6192188, Hirsch Rd,Houston,Harris,TX,US,77016-2901
A-6383157, S Kirkwood Rd,Houston,Harris,TX,US,77077-6610
A-682170,S Dairy Ashford St,Houston,Harris,TX,US,77072
A-3426687,US-75 S,Dallas,Dallas,TX,US,75243
A-2596881,Hawn Fwy E,Dallas,Dallas,TX,US,75217
A-2736973,W Parmer Ln,Austin,Travis,TX,US,78727-4602
A-1482443,Ashburnham Dr,Houston,Harris,TX,US,77082
A-2498585,Southwest Pkwy,Wichita Falls,Wichita,TX,US,76310-2803
A-272750,N Weidner Rd,San Antonio,Bexar,TX,US,78233
A-6109188, FM 2100 Rd,Crosby,Harris,TX,US,77532
A-2688262,N Lamar Blvd,Austin,Travis,TX,US,78753-4107
A-2237857,I-820 E,Hurst,Tarrant,TX,US,76053
A-429794,I-610 E,Houston,Harris,TX,US,77017
A-1520179,Preston Oaks Rd,Dallas,Dallas,TX,US,75254
A-450268,US-183 S,Austin,Travis,TX,US,78752
A-537497,Connally Loop,San Antonio,Bexar,TX,US,78227
A-297912,S Saint Augustine Dr,Dallas,Dallas,TX,US,75217
A-684379,E Oltorf St,Austin,Travis,TX,US,78741-4027
A-2179020,I-20 W,Arlington,Tarrant,TX,US,76017
A-7226926,I-35E N,Carrollton,Dallas,TX,US,75006
A-2437530,Telge Rd,Houston,Harris,TX,US,77095-5003
A-2277790,Valwood Pkwy,Dallas,Dallas,TX,US,75234
A-2729867,I-10 E,Houston,Harris,TX,US,77029
A-2192225,N Hall St,Dallas,Dallas,TX,US,75204
A-758713,N Shepherd Dr,Houston,Harris,TX,US,77008-3756
A-298623,Greenhouse Rd,Houston,Harris,TX,US,77094
A-277900,W Davis St,Dallas,Dallas,TX,US,75211
A-1627672,S Riverfront Blvd,Dallas,Dallas,TX,US,75207
A-2060713,I-35W S,Fort Worth,Tarrant,TX,US,76104
A-835081,John Carpenter Fwy W,Irving,Dallas,TX,US,75063
A-1558453,Harry Hines Blvd,Dallas,Dallas,TX,US,75234
A-4700971, Singleton Blvd,Dallas,Dallas,TX,US,75212-3829
A-4725901,Spenwick Dr,Houston,Harris,TX,US,77055
A-5540067, Gulf Fwy,Houston,Harris,TX,US,77023-4640
A-701941,Bessemer St,Houston,Harris,TX,US,77034-2702
A-3390760,N Interstate 35,Austin,Travis,TX,US,78753-3702
A-304413,I-610 W,Houston,Harris,TX,US,77028
A-7191384,I-30 W,Fort Worth,Tarrant,TX,US,76103
A-4332110,I-35E N,Dallas,Dallas,TX,US,75220
A-286473,I-635 W,Dallas,Dallas,TX,US,75234
A-6946274,Earl Campbell Pkwy,Tyler,Smith,TX,US,75701
A-6694567,Gregg Manor Rd,Manor,Travis,TX,US,78653
A-2244593,W Rundberg Ln,Austin,Travis,TX,US,78758
A-1251575,I-30 E,Dallas,Dallas,TX,US,75228
A-2018486,Pipers View Dr,Webster,Harris,TX,US,77598-2259
A-7126232,US-77 N,Dallas,Dallas,TX,US,75224
A-794969,Highway 6 S,Houston,Harris,TX,US,77082-3205
A-6116698, N Central Expy,Dallas,Dallas,TX,US,75204
A-4495488, Norhill Blvd,Houston,Harris,TX,US,77009-2449
A-6878302, Long Point Rd,Houston,Harris,TX,US,77055-4206
A-929714,I-30 E,Dallas,Dallas,TX,US,75223
A-2396286,I-45 N,Houston,Harris,TX,US,77034
A-386847,Westview Dr,Houston,Harris,TX,US,77043-5019
A-6036550,I-35E N,Dallas,Dallas,TX,US,75216
A-281186,W Mockingbird Ln,Dallas,Dallas,TX,US,75247-4903
A-2199686,N Interstate 35,Austin,Travis,TX,US,78752
A-4839186,I-35 N,Von Ormy,Bexar,TX,US,78073
A-1793215,S Marsalis Ave,Dallas,Dallas,TX,US,75216
A-2188285,S Pleasant Valley Rd,Austin,Travis,TX,US,78744
A-2464219,Stemmons Fwy N,Dallas,Dallas,TX,US,75220
A-3299747,Loop 12 N,Dallas,Dallas,TX,US,75212
A-6854192,I-635 E,Dallas,Dallas,TX,US,75238
A-5365684, E Mount Houston Rd,Houston,Harris,TX,US,77050
A-6676979,US-75 S,Dallas,Dallas,TX,US,75243
A-2582773,I-10 W,Houston,Harris,TX,US,77029
A-4995308,E Howard Ln,Manor,Travis,TX,US,78653
A-2268223,I-35 N,Austin,Travis,TX,US,78752
A-1210682,I-30 E,Dallas,Dallas,TX,US,75226
A-4727086, Valley View Ln,Dallas,Dallas,TX,US,75240-5506
A-2385700,Royalton St,Houston,Harris,TX,US,77081
A-998979,Euclid Ave,Austin,Travis,TX,US,78704-5517
A-6816472,Woodall Rodgers Fwy N,Dallas,Dallas,TX,US,75207
A-3052774,Davenport Rd,Dallas,Collin,TX,US,75252
A-1293012,Old San Antonio Rd,Austin,Travis,TX,US,78747
A-7428884, Chestnut St,Dallas,Dallas,TX,US,75226-1961
A-2034959,I-45 N,Dallas,Dallas,TX,US,75241
A-3777670, Airport Blvd,Austin,Travis,TX,US,78722
A-335577,Governors Row,Austin,Travis,TX,US,78744
A-3136495,S Hampton Rd,Dallas,Dallas,TX,US,75232
A-5825764, Red River St,Austin,Travis,TX,US,78701-4127
A-3838418,I-30 W,Mesquite,Dallas,TX,US,75150
A-384587,E Ripy St,Fort Worth,Tarrant,TX,US,76110
A-3426058, E Front St,De Kalb,Bowie,TX,US,75559-1418
A-2893967,Northwest Fwy E,Houston,Harris,TX,US,77092
A-7529767,I-20 W,Dallas,Dallas,TX,US,75237
A-2360973,I-69 S,Houston,Harris,TX,US,77098
A-1767714,Mopac Expy S,Austin,Travis,TX,US,78759
A-1016511,I-35W N,Grandview,Johnson,TX,US,76050
A-269155,US-183 S,Austin,Travis,TX,US,78759
A-432576,Papurt Dr,Fort Worth,Tarrant,TX,US,76106-6555
A-7068826, N Zaragoza Rd,El Paso,El Paso,TX,US,79938-7916
A-5862710,I-30 E,Dallas,Dallas,TX,US,75228
A-2713211,US-59 S,Houston,Harris,TX,US,77020
A-334464,I-35 S,New Braunfels,Comal,TX,US,78130
A-7689403,Tom Landry Fwy,Arlington,Tarrant,TX,US,76011
A-2393437,N San Marcos,San Antonio,Bexar,TX,US,78207-2316
A-302171,TX-130 S,San Antonio,Bexar,TX,US,78222
A-4280672, Antoine Dr,Houston,Harris,TX,US,77091
A-3428998,Westpark Dr,Houston,Harris,TX,US,77081
A-3710374,I-635 E,Dallas,Dallas,TX,US,75244
A-5551745, County Line Rd,Elgin,Travis,TX,US,78621-4167
A-1271845,I-610 N,Houston,Harris,TX,US,77029
A-4384013, Preston Rd,Dallas,Dallas,TX,US,75240
A-7654414, Coit Rd,Dallas,Dallas,TX,US,75254
A-2611661,I-20 W,Arlington,Tarrant,TX,US,76017
A-7216615,Stemmons Fwy N,Dallas,Dallas,TX,US,75247
A-281218,FM 969,Manor,Travis,TX,US,78653
A-2141201,S 1st St,Austin,Travis,TX,US,78704-7048
A-6039148, Garland Rd,Dallas,Dallas,TX,US,75218
A-5426196, S Gessner Rd,Houston,Harris,TX,US,77063-2008
A-275222,W Sam Houston Tollway N,Houston,Harris,TX,US,77041
A-269619,Harwin Dr,Houston,Harris,TX,US,77036
A-432143,Durham Dr,Houston,Harris,TX,US,77007-2216
A-3009510,I-45 N,Dallas,Dallas,TX,US,75241
A-2954826,Detering St,Houston,Harris,TX,US,77007-1920
A-5086895,US-75,Allen,Collin,TX,US,75013
A-290610,Winscott Rd,Fort Worth,Tarrant,TX,US,76126
A-6107207, Riverway Dr,Dallas,Dallas,TX,US,75217-2528
A-1428665,I-10 W,Houston,Harris,TX,US,77007
A-2086108,W Gibson St,Austin,Travis,TX,US,78704
A-6419379,Connally Loop,San Antonio,Bexar,TX,US,78224
A-288823,Manchaca Rd,Austin,Travis,TX,US,78745-3626
A-5163938,State Loop 1604 S,San Antonio,Bexar,TX,US,78249
A-2067555,Connally Loop,San Antonio,Bexar,TX,US,78230
A-508848,Hudson Bend Rd,Austin,Travis,TX,US,78734
A-1898938,N Zaragoza Rd,El Paso,El Paso,TX,US,79936-7908
A-2960489,Briarpark Dr,Houston,Harris,TX,US,77042-3704
A-3067928,Irving Blvd,Dallas,Dallas,TX,US,75247
A-2246796,Woodleigh St,Austin,Travis,TX,US,78704
A-4305197,I-635 W,Dallas,Dallas,TX,US,75251
A-2273832,Congress St,Houston,Harris,TX,US,77002-2322
A-2592002,US-59 S,Houston,Harris,TX,US,77004
A-1043000,I-45 S,Houston,Harris,TX,US,77076
A-761285,Memorial Dr,Houston,Harris,TX,US,77024
A-264855,Ramus St,Houston,Harris,TX,US,77092-8014
A-1359968,John Carpenter Fwy E,Irving,Dallas,TX,US,75063
A-303099,Scofield Farms Dr,Austin,Travis,TX,US,78727
A-2603850,Fairview Park Dr,Houston,Harris,TX,US,77073
A-3262505,McCullough Ave,San Antonio,Bexar,TX,US,78212-3707
A-268807,Kirby Dr,Houston,Harris,TX,US,77054-2504
A-2301996,US-90 W,San Antonio,Bexar,TX,US,78204
A-5502108, E Riverside Dr,Austin,Travis,TX,US,78704-1333
A-4719617,I-635 W,Dallas,Dallas,TX,US,75243
A-6229476, S FM 973,Austin,Travis,TX,US,78725
A-510902,W Northwest Hwy,Dallas,Dallas,TX,US,75220
A-3612153,I-610 N,Houston,Harris,TX,US,77027
A-2324702,Exposition Blvd,Austin,Travis,TX,US,78703
A-4951098,I-69 S,Houston,Harris,TX,US,77032
A-2173330,S Riverfront Blvd,Dallas,Dallas,TX,US,75207
A-6367738, Gessner Rd,Houston,Harris,TX,US,77055-6044
A-5881597,Antoine Dr,Houston,Harris,TX,US,77088
A-561298,US-59,Houston,Harris,TX,US,77003
A-2572597,NW Loop 410,San Antonio,Bexar,TX,US,78229-5346
A-6040744,Tom Landry Fwy,Dallas,Dallas,TX,US,75207
A-3680051,Burnet Rd,Austin,Travis,TX,US,78756
A-388446,TX-130 S,San Antonio,Bexar,TX,US,78223
A-1000808,N FM 620,Austin,Williamson,TX,US,78750-1304
A-284865,I-35 S,Pflugerville,Travis,TX,US,78660
A-1717456,Sand Springs Ave,Dallas,Dallas,TX,US,75227-7114
A-2833711,S MacGregor Way,Houston,Harris,TX,US,77030
A-3052677,Wildridge Dr,Austin,Travis,TX,US,78759-7335
A-4372053, W Ledbetter Dr,Dallas,Dallas,TX,US,75224-5139
A-4194972,US-75 N,Dallas,Dallas,TX,US,75226
A-1366302,Woodall Rodgers Fwy,Dallas,Dallas,TX,US,75201-2233
A-6528065,US-87,San Antonio,Bexar,TX,US,78204
A-1906710,North Loop,Houston,Harris,TX,US,77009-1240
A-997648,Hirsch Rd,Houston,Harris,TX,US,77026
A-1746077,N Capital of Texas Hwy,Austin,Travis,TX,US,78731
A-2381136,Goodson Dr,Houston,Harris,TX,US,77060-4252
A-2567849,Woodall Rodgers Fwy S,Dallas,Dallas,TX,US,75202
A-305508,Chimney Rock Rd,Houston,Harris,TX,US,77056-6203
A-6330532,Lyndon B Johnson Fwy,Dallas,Dallas,TX,US,75243
A-274146,Slippery Elm Trl,Austin,Travis,TX,US,78750-1441
A-2167037,I-610 N,Houston,Harris,TX,US,77027
A-1155745,I-2 W,San Juan,Hidalgo,TX,US,78589
A-5657476, E Main St,Crowley,Tarrant,TX,US,76036-2613
A-5297905,Sam Houston Tlwy,Houston,Harris,TX,US,77086
A-7068226,W Sam Houston Tollway S,Houston,Harris,TX,US,77024
A-4024617,TX-71,Austin,Travis,TX,US,78741
A-2554343,N Interstate 35,Austin,Travis,TX,US,78722
A-5641329,Lyndon B Johnson Fwy,Dallas,Dallas,TX,US,75234
A-274883,Cullen Blvd,Houston,Harris,TX,US,77021-5005
A-6056357, Fondren Rd,Houston,Harris,TX,US,77036-2904
A-7775027,US-75 N,Dallas,Dallas,TX,US,75231
A-272191,Dessau Rd,Pflugerville,Travis,TX,US,78660
A-1589659,I-610 N,Houston,Harris,TX,US,77055
A-6574926, W Mount Houston Rd,Houston,Harris,TX,US,77038-3603
A-2472509,TX-12 Loop S,Dallas,Dallas,TX,US,75211
A-4471676,TX-183 Express Toll,Irving,Dallas,TX,US,75062
A-485388,Southwest Fwy,Houston,Harris,TX,US,77074-1408
A-3875066, E Texas State Hwy 44,Encinal,La Salle,TX,US,78019
A-1529039,I-610 S,Houston,Harris,TX,US,77029
A-428627,Hammerly Blvd,Houston,Harris,TX,US,77080-6613
A-2984233,Tarry St,Wichita Falls,Wichita,TX,US,76308-1601
A-858502,N Hampton Rd,Dallas,Dallas,TX,US,75208
A-3253158,Martin Luther King Fwy S,Fort Worth,Tarrant,TX,US,76102
A-2069170,State Highway 71 W,Spicewood,Travis,TX,US,78669-5120
A-6309774, Loyola Ln,Austin,Travis,TX,US,78724
A-986421,N Sam Houston Pkwy E,Houston,Harris,TX,US,77060-4001
A-3438875,LBJ Fwy W,Dallas,Dallas,TX,US,75228
A-1812390,E Mockingbird Ln,Dallas,Dallas,TX,US,75205
A-2318472,FM 2351 Rd,Friendswood,Harris,TX,US,77546-2481
A-281498,Data Dr,Dallas,Dallas,TX,US,75238
A-391681,Tampas Ln,Dallas,Dallas,TX,US,75227-5216
A-5060014, N Lamar Blvd,Austin,Travis,TX,US,78705-1108
A-1271867,Sadler St,Houston,Harris,TX,US,77093-8313
A-1579681,I-45 N,Houston,Harris,TX,US,77060
A-6726242,I-35E S,Dallas,Dallas,TX,US,75220
A-387759,Ranch Road 2222,Austin,Travis,TX,US,78730-3206
A-1397316,Fondren Rd,Houston,Harris,TX,US,77074-3202
A-3640197,N Central Expy,Dallas,Dallas,TX,US,75201
A-1398612,Bee Cave Rd,Austin,Travis,TX,US,78746-6605
A-2490109,I-30 E,Fort Worth,Tarrant,TX,US,76103
A-2837983,Weslayan St,Houston,Harris,TX,US,77027
A-7744384,LBJ Fwy W,Dallas,Dallas,TX,US,75228
A-6306079, N Central Expy,Dallas,Dallas,TX,US,75206-5869
A-4190898, Southwest Fwy,Houston,Harris,TX,US,77074-2105
A-4244325,W Braker Ln,Austin,Travis,TX,US,78759
A-5711249, W 12th St,Dallas,Dallas,TX,US,75208
A-4665211, North Fwy,Houston,Harris,TX,US,77060-1231
A-4282476, W Commerce St,Dallas,Dallas,TX,US,75212
A-3009714,Bellaire Blvd,Houston,Harris,TX,US,77072-2311
A-1102352,I-35 S,San Antonio,Bexar,TX,US,78204
A-6260439,I-610 W,Houston,Harris,TX,US,77087
A-3043998,W 30th St,Houston,Harris,TX,US,77018-8310
A-1100878,Cedardale Dr,Dallas,Dallas,TX,US,75241
A-6047161, Inwood Rd,Dallas,Dallas,TX,US,75220
A-1388772,Inca St,San Antonio,Bexar,TX,US,78237
A-6169424, Forest Ln,Dallas,Dallas,TX,US,75230-2304
A-7028848,I-45 N,Houston,Harris,TX,US,77019
A-2759278,S Padre Island Dr,Corpus Christi,Nueces,TX,US,78411-4412
A-4885245,Lyndon B Johnson Fwy,Dallas,Dallas,TX,US,75241
A-1968215,Airport Blvd,Austin,Travis,TX,US,78702-3152
A-4493651,Ferndale Rd,Dallas,Dallas,TX,US,75238
A-5744980,I-635 W,Dallas,Dallas,TX,US,75234
A-2237998,I-35E N,Dallas,Dallas,TX,US,75234
A-682618,Tom Landry Hwy,Dallas,Dallas,TX,US,75203
A-762462,I-635 W,Dallas,Dallas,TX,US,75243
A-6482102, Hamilton Pool Rd,Austin,Travis,TX,US,78738-7004
A-5494459, W Jefferson Blvd,Dallas,Dallas,TX,US,75208-5543
A-3940876,Eastern Ave,Dallas,Dallas,TX,US,75229
A-2263007,I-35E S,Dallas,Dallas,TX,US,75220
A-1169022,Surrender Ave,Austin,Travis,TX,US,78728
A-3568051,US-77 N,Carrollton,Dallas,TX,US,75006
A-2234551,N Sam Houston Pkwy E,Houston,Harris,TX,US,77060
A-433276,US-183 S,Austin,Travis,TX,US,78752
A-3378871,Sampson St,Houston,Harris,TX,US,77004-4742
A-6176026, Lemmon Ave E,Dallas,Dallas,TX,US,75204
A-7176500,La Porte Fwy W,Houston,Harris,TX,US,77017
A-3287036,US-183 S,Austin,Williamson,TX,US,78750
A-5490616, Lemmon Ave,Dallas,Dallas,TX,US,75209-6226
A-6381886, W Mount Houston Rd,Houston,Harris,TX,US,77038-3804
A-1452741,I-610 N,Houston,Harris,TX,US,77092
A-2426285,Westheimer Rd,Houston,Harris,TX,US,77098-1002
A-1572398,Gateway Blvd E,El Paso,El Paso,TX,US,79915
A-3612286,I-45 N,Houston,Harris,TX,US,77037
A-3305412,Ranch Road 2222,Austin,Travis,TX,US,78730
A-334313,Greystone Dr,Austin,Travis,TX,US,78731-2325
A-2229799,S Zaragoza Rd,El Paso,El Paso,TX,US,79907-6523
A-4202227, NE I-410-LOOP,San Antonio,Bexar,TX,US,78216
A-1787675,I-20 W,Arlington,Tarrant,TX,US,76017
A-752831,E Nakoma St,San Antonio,Bexar,TX,US,78216-2842
A-4997591,TX-121 Express Toll,North Richland Hills,Tarrant,TX,US,76180
A-1862471,W Greens Rd,Houston,Harris,TX,US,77067-4214
A-3440681,I-45 S,Houston,Harris,TX,US,77090
A-886929,Uvalde Rd,Houston,Harris,TX,US,77015-3741
A-3738704,I-10 W,Houston,Harris,TX,US,77020
A-1545313,Smith,Austin,Travis,TX,US,78725
A-2911538,Tom Landry Fwy,Fort Worth,Tarrant,TX,US,76120
A-6938040, N FM 973,Austin,Travis,TX,US,78725
A-1320593,Webb Chapel Ext,Dallas,Dallas,TX,US,75220
A-5549838, Eldridge Pkwy S,Houston,Harris,TX,US,77077
A-5663793,I-35W S,Fort Worth,Tarrant,TX,US,76104
A-1293626,W Sam Houston Pkwy N,Houston,Harris,TX,US,77040
A-6003067,Woodhaven Blvd,Fort Worth,Tarrant,TX,US,76103
A-265493,I-45 S,Houston,Harris,TX,US,77037
A-2488128,Gulf Fwy,Houston,Harris,TX,US,77089
A-2719408,Stockton,Houston,Harris,TX,US,77030
A-5280905, Hillcrest Rd,Dallas,Dallas,TX,US,75230
A-1948076,I-45 S,Conroe,Montgomery,TX,US,77385
A-2013897,Lemmon Ave,Dallas,Dallas,TX,US,75204
A-4307186, Guadalupe St,Austin,Travis,TX,US,78705-5606
A-2465080,Live Oak St,Houston,Harris,TX,US,77004-6010
A-489761,Friar Villa Dr,Austin,Hays,TX,US,78737-1904
A-7660180,LBJ Fwy N,Mesquite,Dallas,TX,US,75149
A-6601125,I-635 W,Dallas,Dallas,TX,US,75234
A-293928,Westheimer Rd,Houston,Harris,TX,US,77056-5401
A-1551788,I-45 S,Ferris,Ellis,TX,US,75125
A-297813,N Weidner Rd,San Antonio,Bexar,TX,US,78233
A-2620008,Ranch Road 2222,Austin,Travis,TX,US,78750
A-6127816, Tillery St,Austin,Travis,TX,US,78721
A-2740870,US-87 N,San Antonio,Bexar,TX,US,78207
A-2145869,I-35 S,San Antonio,Bexar,TX,US,78219
A-1397026,Rittiman Rd,San Antonio,Bexar,TX,US,78218
A-5251530, Bell St,Houston,Harris,TX,US,77002-7666
A-5363388, Gessner Rd,Houston,Harris,TX,US,77041-6010
A-4436770,US-75 S,Richardson,Dallas,TX,US,75080
A-331829,Botany Ln,Houston,Harris,TX,US,77048
A-1382957,Airport Blvd,Austin,Travis,TX,US,78722-1336
A-2634269,Clearwood Dr,Houston,Harris,TX,US,77075
A-4452212, N FM 620,Austin,Travis,TX,US,78726
A-3890425,West Fwy,Fort Worth,Tarrant,TX,US,76107
A-1338461,W Colorado Blvd,Dallas,Dallas,TX,US,75208-2504
A-1510946,Martin St,Houston,Harris,TX,US,77018
A-2313843,Richmond Ave,Houston,Harris,TX,US,77057-5911
A-4564739,I-20 W,Dallas,Dallas,TX,US,75241
A-1715222,US-80 W,Mesquite,Dallas,TX,US,75150
A-4330340,El Camino Real,Houston,Harris,TX,US,77062
A-1328268,W Interstate 20,Grand Prairie,Tarrant,TX,US,75052
A-3381658,Club Creek Dr,Houston,Harris,TX,US,77036-7503
A-6062889, Evanston St,Houston,Harris,TX,US,77015-4453
A-1879753,US-75 N,Dallas,Dallas,TX,US,75243
A-387936,Matlock Rd,Arlington,Tarrant,TX,US,76015-2907
A-5917894,Market Center Blvd,Dallas,Dallas,TX,US,75219
A-5214968,W Wheatland Rd,Dallas,Dallas,TX,US,75237
A-6149817, Dessau Rd,Austin,Travis,TX,US,78754-1992
A-2784055,W Little York Rd,Houston,Harris,TX,US,77040
A-6654576, Bellaire Blvd,Houston,Harris,TX,US,77072-2454
A-6966380,US-290,Austin,Travis,TX,US,78704
A-1583605,S FM 973,Austin,Travis,TX,US,78725
A-1715442,Kempwood Dr,Houston,Harris,TX,US,77043-1409
A-1812528,Briar Forest Dr,Houston,Harris,TX,US,77077
A-4288917, Martin Luther King Jr Blvd,Houston,Harris,TX,US,77021-2930
A-1596485,Skillman St,Dallas,Dallas,TX,US,75238
A-2345781,Concordia University Dr,Austin,Travis,TX,US,78726
A-4864834,Impala Ln,Dallas,Dallas,TX,US,75231
A-292613,San Pedro Ave,San Antonio,Bexar,TX,US,78216
A-388908,Whittier Ave,Dallas,Dallas,TX,US,75218
A-3378823,Will Clayton Pkwy,Houston,Harris,TX,US,77032-5240
A-1474646,Far View Dr,Austin,Travis,TX,US,78730-3322
A-1086266,Spur 408 N,Dallas,Dallas,TX,US,75211
A-293971,Harmon Ave,Austin,Travis,TX,US,78751
A-6233661,Stage Coach Trl,Austin,Travis,TX,US,78745
A-1583933,Antoine Dr,Houston,Harris,TX,US,77086
A-297702,Stults Rd,Dallas,Dallas,TX,US,75243
A-1898827,Sage Rd,Houston,Harris,TX,US,77056-1419
A-5002163, Eldridge Pkwy,Houston,Harris,TX,US,77082-6875
A-5926366,RL Thornton Fwy,Dallas,Dallas,TX,US,75203
A-1828072,Hilltop Trl,Taylor,Williamson,TX,US,76574-7234
A-3569893,State Loop 1604 S,San Antonio,Bexar,TX,US,78249
A-3431645,Loop 820 E,North Richland Hills,Tarrant,TX,US,76180
A-1314317,Parker Rd,Plano,Collin,TX,US,75074
A-490126,LBJ Fwy E,Dallas,Dallas,TX,US,75243
A-3569739,I-610 E,Houston,Harris,TX,US,77033
A-4115488,Gulf Fwy,Houston,Harris,TX,US,77034
A-1746512,N Durham Dr,Houston,Harris,TX,US,77008-3738
A-3635499,State Loop 375 S,El Paso,El Paso,TX,US,79928
A-1913242,Interstate 35,Pflugerville,Travis,TX,US,78660
A-2364497,Burleson Rd,Austin,Travis,TX,US,78741
A-1975421,I-45 N,Houston,Harris,TX,US,77017
A-4918630, McNeil St,Dallas,Dallas,TX,US,75227-5628
A-6527535, Springrock Ln,Houston,Harris,TX,US,77055-4301
A-3221308,Airport Blvd,Houston,Harris,TX,US,77061-3432
A-7600140,I-10 W,Katy,Harris,TX,US,77449
A-6253805, S Broadway Ave,Tyler,Smith,TX,US,75703-4667
A-4403907, Angelina Dr,Dallas,Dallas,TX,US,75212-1712
A-5093563,I-35,Sanger,Denton,TX,US,76266
A-2014185,Knight St,Houston,Harris,TX,US,77093
A-2667334,Huntington Place Dr,Houston,Harris,TX,US,77099-2310
A-4339225,N Central Expy,Plano,Collin,TX,US,75074
A-5133759, Peden St,Houston,Harris,TX,US,77006-1334
A-1694459,Bonnie View Rd,Dallas,Dallas,TX,US,75241-7401
A-1561460,I-20 W,Dallas,Dallas,TX,US,75241
A-7742387,Loop 820 E,Fort Worth,Tarrant,TX,US,76106
A-2219285,El Paso St,San Antonio,Bexar,TX,US,78207-5050
A-1326714,I-20 E,Dallas,Dallas,TX,US,75217
A-5981362, Mayfield Rd,Grand Prairie,Tarrant,TX,US,75052-7252
A-6519473, Spicewood Springs Rd,Austin,Travis,TX,US,78759
A-276313,Fannin St,Houston,Harris,TX,US,77002-8110
A-2134502,Webster St,Houston,Harris,TX,US,77002-8940
A-284948,US-77 S,Dallas,Dallas,TX,US,75216
A-2708303,Cedar Springs Rd,Dallas,Dallas,TX,US,75235
A-6126555, Peach Creek Dr,Houston,Harris,TX,US,77017
A-6475395, Elwayne Ave,Dallas,Dallas,TX,US,75217-5154
A-2054277,Atlanta St,Austin,Travis,TX,US,78703
A-4178058, US Highway 183 S,Austin,Travis,TX,US,78719
A-7053032,Dallas St,Paige,Bastrop,TX,US,78659
A-4460670, Westheimer Rd,Houston,Harris,TX,US,77063-4614
A-2551795,Beechnut St,Houston,Harris,TX,US,77072-4034
A-3012038,S Sam Houston Pkwy E,Houston,Harris,TX,US,77048
A-2810680,Bennington St,Houston,Harris,TX,US,77016-6710
A-1146477,Hickory St,Dallas,Dallas,TX,US,75215
A-6363616, Airport Blvd,Houston,Harris,TX,US,77048-1004
A-2129596,Parker Ln,Austin,Travis,TX,US,78741
A-432161,E Kiest Blvd,Dallas,Dallas,TX,US,75216-3301
A-1427185,Miller Road 2,Houston,Harris,TX,US,77049
A-1828488,W Sam Houston Tollway S,Houston,Harris,TX,US,77043
A-744028,Katy Fwy,Houston,Harris,TX,US,77024-1501
A-671914,W 35th St,Austin,Travis,TX,US,78703-1439
A-593185,McAllister Fwy,San Antonio,Bexar,TX,US,78215
A-2020714,US Highway 80 E,Mesquite,Dallas,TX,US,75150
A-4131055,US-90 W,Houston,Harris,TX,US,77029
A-1050446,I-35W S,Alvarado,Johnson,TX,US,76009
A-1325427,I-20 E,Westbrook,Mitchell,TX,US,79565
A-2599601,Forest Ln,Dallas,Dallas,TX,US,75243
A-4808485, Dessau Rd,Austin,Travis,TX,US,78754
A-1039486,I-820 W,North Richland Hills,Tarrant,TX,US,76180
A-293670,Spring Cypress Rd,Spring,Harris,TX,US,77379-3110
A-6167086, N McCarty St,Houston,Harris,TX,US,77013-3013
A-1131338,Connally Loop,San Antonio,Bexar,TX,US,78227
A-385517,N McCarty St,Houston,Harris,TX,US,77029
A-5680655, Royal Haven Ln,Dallas,Dallas,TX,US,75229-3733
A-269827,Inwood Rd,Dallas,Dallas,TX,US,75209-3931
A-2810256,I-820 N,Fort Worth,Tarrant,TX,US,76119
A-275104,S US Highway 281,San Antonio,Bexar,TX,US,78221
A-1103616,I-35E S,Dallas,Dallas,TX,US,75207
A-2869748,Luella St,Fort Worth,Tarrant,TX,US,76102
A-2906004,US-87 S,San Antonio,Bexar,TX,US,78213
A-288066,Weslayan St,Houston,Harris,TX,US,77027
A-2489997,Old Iowa Park Rd,Wichita Falls,Wichita,TX,US,76306-6103
A-5220712,Lawson Rd,Fort Worth,Tarrant,TX,US,76131
A-2297496,S Loop W,Houston,Harris,TX,US,77054-3816
A-7719794,I-610 W,Houston,Harris,TX,US,77026
A-3777927, Galveston Rd,Houston,Harris,TX,US,77034-4817
A-301797,Bee Caves Rd,Austin,Travis,TX,US,78746
A-6628879,I-35 S,Austin,Travis,TX,US,78751
A-2680258,I-20 W,Dallas,Dallas,TX,US,75236
A-4001043, Fawnway Dr,Houston,Harris,TX,US,77048-4113
A-3105236,S Ewing Ave,Dallas,Dallas,TX,US,75203
A-3426426, W Parmer Ln,Austin,Williamson,TX,US,78717-4912
A-6773668,I-20 W,Terrell,Kaufman,TX,US,75161
A-6355857, Ilex St,Houston,Harris,TX,US,77012-3138
A-3239451,Preston Rd,Frisco,Collin,TX,US,75035
A-3435444,I-45 N,Houston,Harris,TX,US,77003
A-4329754, LBJ Serv N,Dallas,Dallas,TX,US,75243
A-3390780,Lamantilla Cv,Austin,Travis,TX,US,78746-1514
A-7046084, E Wheatland Rd,Duncanville,Dallas,TX,US,75137
A-4922468, W Northwest Hwy,Dallas,Dallas,TX,US,75220-4304
A-5477777, Webb Chapel Rd,Dallas,Dallas,TX,US,75220-4935
A-3437756,I-610 N,Houston,Harris,TX,US,77012
A-3402387,W Spring Valley Rd,Richardson,Dallas,TX,US,75080
A-289732,TX-45 S,Pflugerville,Travis,TX,US,78660
A-3993230,Lyndon B Johnson Fwy,Dallas,Dallas,TX,US,75234
A-5641747, E Tidwell Rd,Houston,Harris,TX,US,77022-1823
A-5871631,Summer St,Houston,Harris,TX,US,77007
A-1552418,Mossrock,San Antonio,Bexar,TX,US,78230-5114
A-2259440,N Sam Houston Tollway E,Houston,Harris,TX,US,77064
A-1206163,FM 1431,Marble Falls,Burnet,TX,US,78654-4706
A-2108496,Guilbeau Rd,San Antonio,Bexar,TX,US,78250-3232
A-3568673, Westheimer Rd,Houston,Harris,TX,US,77077-5430
A-1797532,Saul Kleinfeld Dr,El Paso,El Paso,TX,US,79936
A-1194266,Grand Avenue Pkwy,Pflugerville,Travis,TX,US,78660-2099
A-3903070, Pacific Ave,Dallas,Dallas,TX,US,75202-2732
A-1836261,Domain Dr,Austin,Travis,TX,US,78758
A-3020331,Old Lockhart Rd,Austin,Travis,TX,US,78747
A-1778766,Beamer Rd,Houston,Harris,TX,US,77089-2352
A-1836202,Burnet Rd,Austin,Travis,TX,US,78758-5214
A-5982256, Fairview Ave,Dallas,Dallas,TX,US,75223
A-6943992, Tidwell Rd,Houston,Harris,TX,US,77016-4613
A-7604866,Northwest Fwy W,Houston,Harris,TX,US,77092
A-264982,E Ben White Blvd,Austin,Travis,TX,US,78704-7300
A-6629142,I-35 N,New Braunfels,Comal,TX,US,78130
A-4958933,Forest Ln,Dallas,Dallas,TX,US,75243
A-2103627,W William Cannon Dr,Austin,Travis,TX,US,78745-5323
A-2247191,Alief Clodine Rd,Houston,Harris,TX,US,77082
A-4150090, E Howard Ln,Austin,Travis,TX,US,78754
A-522290,South Fwy,Houston,Harris,TX,US,77004
A-3170021,W Parmer Ln,Austin,Travis,TX,US,78753
A-390595,I-45 S,Houston,Harris,TX,US,77017
A-5358741, McKinney Ave,Dallas,Dallas,TX,US,75205-4214
A-6867056,I-635 W,Dallas,Dallas,TX,US,75244
A-294541,E Rundberg Ln,Austin,Travis,TX,US,78753
A-4160893,I-35 N,San Marcos,Hays,TX,US,78666
A-1839007,E Highway 290,Austin,Travis,TX,US,78724
A-6260316,US-75 S,Dallas,Dallas,TX,US,75205
A-7555320,US-75 S,Dallas,Dallas,TX,US,75231
A-4411134,Pebble Hills Blvd,El Paso,El Paso,TX,US,79936
A-6593631,E Lake Highlands Dr,Dallas,Dallas,TX,US,75218
A-1960390,I-35E N,Lewisville,Denton,TX,US,75067
A-747596,Kirby Dr,Houston,Harris,TX,US,77098-5010
A-269759,US-59 N,Houston,Harris,TX,US,77020
A-4056454, Wynnewood Village Shopping Ctr,Dallas,Dallas,TX,US,75224
A-2168854,S Franklin St,Dallas,Dallas,TX,US,75233-2818
A-2159982,President George Bush Tpke W,Garland,Dallas,TX,US,75040
A-2791157,N Durham Dr,Houston,Harris,TX,US,77008-1724
A-7559697,TX-1604,San Antonio,Bexar,TX,US,78249
A-798764,S Sam Houston Tollway W,Houston,Harris,TX,US,77047
A-4904791,Memorial Dr,Houston,Harris,TX,US,77002
A-296843,I-10 E,Houston,Harris,TX,US,77029
A-1109572,Metric Blvd,Austin,Travis,TX,US,78727
A-6113123,South Fwy,Fort Worth,Tarrant,TX,US,76140
A-3245988,US Highway 183 S,Austin,Travis,TX,US,78747
A-2761720,Escarpment Blvd,Austin,Travis,TX,US,78739
A-5680177, Gessner Rd,Houston,Harris,TX,US,77080-7503
A-5612001, W Camp Wisdom Rd,Dallas,Dallas,TX,US,75237-2604
A-6595960,I-635 W,Dallas,Dallas,TX,US,75244
A-5098435, N Carroll Ave,Dallas,Dallas,TX,US,75204-3601
A-1818423,I-69 S,Sugar Land,Fort Bend,TX,US,77478
A-5605449, Calhoun Rd,Houston,Harris,TX,US,77033-3711
A-3442899, Newcastle Dr,Houston,Harris,TX,US,77027-6720
A-3434130,I-10 W,Houston,Harris,TX,US,77024
A-487718,I-45 S,Houston,Harris,TX,US,77022
A-3144653,Estancia,San Antonio,Bexar,TX,US,78214
A-283682,Mopac Expy N,Austin,Travis,TX,US,78746
A-911111,Bissonnet St,Houston,Harris,TX,US,77074
A-2440430,N Westmoreland Rd,Dallas,Dallas,TX,US,75212
A-290089,Abrams Rd,Dallas,Dallas,TX,US,75243-6172
A-2480123,N Capital of Texas Hwy,Austin,Travis,TX,US,78750
A-5748380, Northwest Hwy,Garland,Dallas,TX,US,75043-4940
A-1186096,S Interstate 35,San Marcos,Hays,TX,US,78666-7736
A-827460,I-10 W,Houston,Harris,TX,US,77094
A-891810,Allegheny St,Houston,Harris,TX,US,77021-2206
A-1870551,Avenue E,San Antonio,Bexar,TX,US,78205-2008
A-7063221, N Lamar Blvd,Austin,Travis,TX,US,78705-1120
A-2987310,Kirkvalley Dr,Houston,Harris,TX,US,77089
A-1131460,W Park Blvd,Plano,Collin,TX,US,75093
A-1441726,TX-288 N,Houston,Harris,TX,US,77047
A-388519,E Riverside Dr,Austin,Travis,TX,US,78741
A-1050402,I-35 S,Georgetown,Williamson,TX,US,78633
A-1908734,W 22nd St,Austin,Travis,TX,US,78705-5204
A-533010,I-820 E,Hurst,Tarrant,TX,US,76053
A-276093,Telephone Rd,Houston,Harris,TX,US,77087-1348
A-7361735,US-80 W,Mesquite,Dallas,TX,US,75149
A-5210009, Dolphin Rd,Dallas,Dallas,TX,US,75223-3536
A-6376731,I-35 N,Austin,Travis,TX,US,78723
A-4748829,West Fwy,Fort Worth,Tarrant,TX,US,76102
A-6440343, Preston Rd,Dallas,Dallas,TX,US,75230
A-3434917,I-20 W,Grand Prairie,Tarrant,TX,US,75052
A-2543629,Kelly Elliott Rd,Arlington,Tarrant,TX,US,76001-5053
A-1636357,Winsted Dr,Dallas,Dallas,TX,US,75218
A-7539245,I-35E S,Dallas,Dallas,TX,US,75207
A-3201817,Cullen Blvd,Houston,Harris,TX,US,77047-3742
A-4298260,US-287 N,Fort Worth,Tarrant,TX,US,76102
A-2724125,Algonquin Dr,Houston,Harris,TX,US,77089
A-1815222,Paige Rd,The Colony,Denton,TX,US,75056
A-289661,Silver St,Houston,Harris,TX,US,77007-4406
A-2713149,I-610 E,Houston,Harris,TX,US,77009
A-664535,Packerd Bend Trl,Houston,Harris,TX,US,77089-2631
A-651754,Bissonnet St,Houston,Harris,TX,US,77074
A-4399028,Isha Way,El Paso,El Paso,TX,US,79925
A-301496,Routh St,Dallas,Dallas,TX,US,75201
A-1958820,George Dieter Dr,El Paso,El Paso,TX,US,79936-7602
A-2777488,US-77 S,Dallas,Dallas,TX,US,75207
A-2132122,La Cabana Dr,Houston,Harris,TX,US,77062
A-2567835,I-45 S,Dallas,Dallas,TX,US,75215
A-4287638, I-20 Service Rd,Millsap,Parker,TX,US,76066-36ND
A-2088358,W Rundberg Ln,Austin,Travis,TX,US,78753
A-3073356,W Southlake Blvd,Southlake,Tarrant,TX,US,76092-6015
A-4391092, Gregory St,Wichita Falls,Wichita,TX,US,76308-1614
A-1699679,E Colorado Blvd,Dallas,Dallas,TX,US,75203
A-4569225,I-35E S,Dallas,Dallas,TX,US,75220
A-450533,Chimney Rock Rd,Houston,Harris,TX,US,77056
A-3827325,I-69 N,Sugar Land,Fort Bend,TX,US,77478
A-3218248,Airport Blvd,Austin,Travis,TX,US,78702-3152
A-1208122,I-45 N,Houston,Harris,TX,US,77090
A-2398448,State Highway 63,Zavalla,Angelina,TX,US,75980
A-3641096,I-45 N,Spring,Harris,TX,US,77373
A-2351995,I-10 W,San Antonio,Bexar,TX,US,78204
A-2459923,W Braker Ln,Austin,Travis,TX,US,78753
A-3443769,I-635 W,Dallas,Dallas,TX,US,75240
A-4430996,Sam Houston Tlwy,Houston,Harris,TX,US,77047
A-281079,Jupiter Rd,Dallas,Dallas,TX,US,75238
A-5344135,Wipprecht St,Houston,Harris,TX,US,77026
A-4021222, Eldridge Pkwy,Houston,Harris,TX,US,77082-6875
A-5905591,I-635 E,Dallas,Dallas,TX,US,75251
A-2213050,I-20 E,Aledo,Parker,TX,US,76008
A-1305715,McCue Rd,Houston,Harris,TX,US,77056
A-510444,Richwood Rd,Houston,Harris,TX,US,77087-5933
A-3025367,TX-1604,San Antonio,Bexar,TX,US,78231
A-2084475,I-10 E,Houston,Harris,TX,US,77007
A-897804,Goodson Dr,Houston,Harris,TX,US,77060
A-2876406,NW Military Hwy,San Antonio,Bexar,TX,US,78231
A-2918411,LBJ Fwy E,Lancaster,Dallas,TX,US,75134
A-5538744, W Northwest Loop 323,Tyler,Smith,TX,US,75702-1334
A-4438399,US-75 S,Richardson,Dallas,TX,US,75080
A-3612574, W Hardy Rd,Houston,Harris,TX,US,77060-3646
A-2781265,Ranch Road 620 N,Austin,Williamson,TX,US,78717
A-2145924,Highway 71 E,Del Valle,Travis,TX,US,78617-3240
A-297831,Barton Skwy,Austin,Travis,TX,US,78746
A-5472669, Rio Grande St,Austin,Travis,TX,US,78705
A-388330,Maham Rd,Dallas,Dallas,TX,US,75240
A-5824768, Casa Loma Ave,Dallas,Dallas,TX,US,75214-4004
A-391024,Bullick Hollow Rd,Austin,Travis,TX,US,78732
A-3429144,Wheeler St,Houston,Harris,TX,US,77004
A-5201616,I-35 S,Sanger,Denton,TX,US,76266
A-6195152,TX-1604-LOOP,San Antonio,Bexar,TX,US,78232
A-7677556, Logan St,Dallas,Dallas,TX,US,75215-1456
A-3132269,TX-71,Austin,Travis,TX,US,78719
A-2277574,Airport Blvd,Austin,Travis,TX,US,78751-4127
A-660247,Pine St,Dallas,Dallas,TX,US,75215-3954
A-283925,Skillman St,Dallas,Dallas,TX,US,75243-7329
A-6267064, Quail View Dr,Missouri City,Fort Bend,TX,US,77489
A-2466929,W Parmer Ln,Austin,Travis,TX,US,78727
A-2006012,Montana Ave,El Paso,El Paso,TX,US,79903-4610
A-3361486,Saunders Ln,Austin,Travis,TX,US,78758-5229
A-945490,S Dairy Ashford Rd,Houston,Harris,TX,US,77072-1737
A-1748738,W 12th St,Austin,Travis,TX,US,78703-4118
A-287545,Franklin St,Houston,Harris,TX,US,77002-2301
A-5981950,LBJ Express,Dallas,Dallas,TX,US,75251
A-272043,Aldine Bender Rd,Humble,Harris,TX,US,77396-3403
A-595017,Marvin D Love Fwy S,Dallas,Dallas,TX,US,75237
A-263778,Preston Rd,Dallas,Dallas,TX,US,75240
A-2132143,Jeanetta St,Houston,Harris,TX,US,77063-5541
A-2467357,I-10 W,Houston,Harris,TX,US,77020
A-7732834,Northwest Fwy E,Houston,Harris,TX,US,77092
A-645008,N Stemmons Fwy,Dallas,Dallas,TX,US,75207
A-1870587,Burnet Rd,Austin,Travis,TX,US,78757-7769
A-280943,Linder St,Houston,Harris,TX,US,77026-1354
A-1546011,I-635 S,Mesquite,Dallas,TX,US,75149
A-1983289,I-635 S,Dallas,Dallas,TX,US,75228
A-4530815, Memorial Dr,Houston,Harris,TX,US,77024-4810
A-984919,S Kirkwood Rd,Houston,Harris,TX,US,77099-2510
A-2499099,Holcombe Blvd,Houston,Harris,TX,US,77021
A-1776046,Meadow Rd,Dallas,Dallas,TX,US,75231
A-2393487,W College Ave,Carrollton,Dallas,TX,US,75006
A-1870832,I-20 W,Balch Springs,Dallas,TX,US,75180
A-3216363,N Central Expy,Dallas,Dallas,TX,US,75243-3714
A-7628535,US-59 N,Houston,Harris,TX,US,77074
A-2355406,Lands End Dr,Houston,Harris,TX,US,77099-3442
A-1585978,Mopac Expy S,Austin,Travis,TX,US,78749
A-3593904, Logan St,Dallas,Dallas,TX,US,75215-1456
A-1536342,San Pedro Ave,San Antonio,Bexar,TX,US,78212-4611
A-1440063,I-45 N,Spring,Harris,TX,US,77373
A-2308333,Trowbridge Dr,El Paso,El Paso,TX,US,79903
A-3833303, Glen Oaks Dr,Austin,Travis,TX,US,78702-2922
A-3833468,Marsh Ln,Dallas,Dallas,TX,US,75234
A-1105137,McCue Rd,Houston,Harris,TX,US,77056
A-4500424,Connally Loop,San Antonio,Bexar,TX,US,78219
A-4469082,I-20 W,Aledo,Parker,TX,US,76008
A-2935709,US-77 N,Dallas,Dallas,TX,US,75224
A-7521035,I-30 W,Fort Worth,Tarrant,TX,US,76116
A-6962394, Cameron Rd,Austin,Travis,TX,US,78753
A-4315236, Diana Dr,El Paso,El Paso,TX,US,79904-1525
A-3966287, E Grand Ave,Dallas,Dallas,TX,US,75223-2942
A-3444852,TX-146 N,La Porte,Harris,TX,US,77571
A-1912548,I-35E S,Dallas,Dallas,TX,US,75207
A-2058610,Sam Rayburn Tollway S,The Colony,Denton,TX,US,75056
A-5998567, E Parmer Ln,Austin,Travis,TX,US,78753-7128
A-272931,Johanna Dr,Houston,Harris,TX,US,77055-2403
A-5997984,I-30 E,Dallas,Dallas,TX,US,75223
A-2313418,US Highway 290 E,Manor,Travis,TX,US,78653-5186
A-7503591,LBJ Fwy N,Mesquite,Dallas,TX,US,75150
A-1482438,Glenmont Dr,Houston,Harris,TX,US,77081-1902
A-2095768,Bellaire Blvd,Houston,Harris,TX,US,77072-2202
A-3748287,South Fwy,Burleson,Tarrant,TX,US,76028
A-519282,S Interstate 35E,Carrollton,Dallas,TX,US,75006-7212
A-947126,Cavalcade St,Houston,Harris,TX,US,77026-3933
A-5524107, Ridgeview Dr,Tyler,Smith,TX,US,75701-4806
A-3318712,N McCarty St,Houston,Harris,TX,US,77013-2507
A-7422820,Tom Landry Fwy,Arlington,Tarrant,TX,US,76011
A-6280039, S R.L. Thornton Fwy,Dallas,Dallas,TX,US,75232
A-789950,Greenspoint Dr,Houston,Harris,TX,US,77060
A-388214,E Riverside Dr,Austin,Travis,TX,US,78704
A-5086979,South Fwy,Houston,Harris,TX,US,77004
A-334292,I-10 W,Houston,Harris,TX,US,77007
A-279844,W Illinois Ave,Dallas,Dallas,TX,US,75224
A-2909202,I-610 W,Houston,Harris,TX,US,77033
A-2589143,Mopac Expy N,Austin,Travis,TX,US,78759
A-1268021,Regulus Dr,El Paso,El Paso,TX,US,79924
A-1616901,I-10 E,El Paso,El Paso,TX,US,79915
A-661483,I-35E S,Dallas,Dallas,TX,US,75247
A-6536246, Bexar St,Dallas,Dallas,TX,US,75215
A-1073482,Katy Tollway,Houston,Harris,TX,US,77079
A-4750747, Eberhart Ln,Austin,Travis,TX,US,78745-4450
A-987977,South Loop E,Houston,Harris,TX,US,77012
A-673352,Hardy St,Houston,Harris,TX,US,77009-1613
A-1725094,Cordell St,Houston,Harris,TX,US,77009-3101
A-1901396,Broadway Blvd,Garland,Dallas,TX,US,75043
A-2143963,N Eldridge Pkwy,Houston,Harris,TX,US,77079
A-1251827,W Sam Houston Tollway S,Houston,Harris,TX,US,77074
A-2599616,US-77 N,Dallas,Dallas,TX,US,75232
A-4863149,I-10 E,San Antonio,Bexar,TX,US,78230
A-6572309,Coit Rd,Dallas,Dallas,TX,US,75251
A-3142119,I-30 E,Fort Worth,Tarrant,TX,US,76103
A-6745110,N Galloway Ave,Mesquite,Dallas,TX,US,75150
A-1824425,Osage St,Houston,Harris,TX,US,77036
A-1707147,I-69 S,Houston,Harris,TX,US,77026
A-3218395,Hatcher St,Dallas,Dallas,TX,US,75210
A-2074181,I-610 W,Houston,Harris,TX,US,77026
A-2316113,Sandpiper Dr,Houston,Harris,TX,US,77035-5261
A-289499,I-35 S,New Braunfels,Comal,TX,US,78132
A-527060,I-35E N,Carrollton,Dallas,TX,US,75006
A-299121,S Braeswood Blvd,Houston,Harris,TX,US,77071-1322
A-1047367,Bissonnet St,Houston,Harris,TX,US,77099-1414
A-2939632,N FM 620,Austin,Travis,TX,US,78726
A-6672270,Woodgreen St,Houston,Harris,TX,US,77033
A-7262972,I-45 N,Houston,Harris,TX,US,77076
A-4752138,W 35th St,Austin,Travis,TX,US,78703
A-1661613,W 14th St,Austin,Travis,TX,US,78701-1619
A-292651,Fannin St,Houston,Harris,TX,US,77002-6701
A-4121673, S Central Expy,Richardson,Dallas,TX,US,75080-7402
A-7509863,I-35 S,Austin,Travis,TX,US,78752
A-2659808,Port Blvd,Dallas,Dallas,TX,US,75241
A-4164660,I-20 W,Dallas,Dallas,TX,US,75237
A-7066288, Sumac Dr,El Paso,El Paso,TX,US,79925
A-2433663,MacArthur Blvd,Lewisville,Denton,TX,US,75067
A-2854168,Pendale Rd,El Paso,El Paso,TX,US,79907-4410
A-4332247,I-35 N,Round Rock,Williamson,TX,US,78664
A-1933687,I-20 W,Dallas,Dallas,TX,US,75253
A-2540910,E Riverside Dr,Austin,Travis,TX,US,78704
A-5903936,S Main St,Houston,Harris,TX,US,77025
A-1581597,Voyager Dr,Jbsa Lackland,Bexar,TX,US,78236
A-2310834,Beechnut St,Houston,Harris,TX,US,77072
A-7748558,US-77 S,Carrollton,Dallas,TX,US,75006
A-2976978,S Freeway N,Houston,Harris,TX,US,77051
A-332720,Preston St,Houston,Harris,TX,US,77002
A-3052776,Ash Ln,Dallas,Dallas,TX,US,75226
A-2454235,W Sam Houston Tollway S,Houston,Harris,TX,US,77042
A-5720773,Trinity Blvd,Hurst,Tarrant,TX,US,76053
A-1038016,W Sam Houston Pkwy N,Houston,Harris,TX,US,77064
A-2449088,Federal Ave,El Paso,El Paso,TX,US,79930-1503
A-1943645,Emancipation Ave,Houston,Harris,TX,US,77003
A-271874,US-59 S,Houston,Harris,TX,US,77027
A-4549363, Whittington Dr,Houston,Harris,TX,US,77077-3679
A-869594,I-20 W,Dallas,Dallas,TX,US,75237
A-5573334, Highway 6 S,Houston,Harris,TX,US,77077-5231
A-791547,I-10 W,Channelview,Harris,TX,US,77530
A-2710742,Westheimer Rd,Houston,Harris,TX,US,77027-5346
A-2490071,N Cooper St,Arlington,Tarrant,TX,US,76011
A-794477,Harbor View Rd,West Lake Hills,Travis,TX,US,78746-3602
A-2662096,S 1st St,Austin,Travis,TX,US,78704-7048
A-6235366,Tom Landry Fwy,Fort Worth,Tarrant,TX,US,76112
A-1231361,I-30 E,Dallas,Dallas,TX,US,75227
A-486619,US-59 N,Houston,Harris,TX,US,77093
A-391064,US-75 S,Dallas,Dallas,TX,US,75206
A-387260,I-30 E,Rowlett,Dallas,TX,US,75088
A-3438256, S Interstate 35 E,Denton,Denton,TX,US,76210-2320
A-7064702,I-610 W,Houston,Harris,TX,US,77012
A-903315,Cullen Blvd,Houston,Harris,TX,US,77048
A-2939789,Midway Rd,Dallas,Collin,TX,US,75287
A-7423455,I-635 W,Dallas,Dallas,TX,US,75238
A-1243779,S Sam Houston Pkwy E,Houston,Harris,TX,US,77075
A-5056945,W Ledbetter Dr,Dallas,Dallas,TX,US,75224
A-1192661,Metric Blvd,Austin,Travis,TX,US,78727
A-2419529,Cameron Rd,Austin,Travis,TX,US,78754-3815
A-6183893, S Congress Ave,Austin,Travis,TX,US,78745
A-5424715,Tom Landry Fwy,Fort Worth,Tarrant,TX,US,76112
A-5036379, Mockingbird Ln,Decatur,Wise,TX,US,76234-5220
A-2686734,Tanner Rd,Houston,Harris,TX,US,77041
A-272113,I-610 E,Houston,Harris,TX,US,77017
A-3768331, Marvin D Love Fwy,Dallas,Dallas,TX,US,75224
A-5809531,I-635 E,Dallas,Dallas,TX,US,75240
A-3144688,Long Vista Dr,Austin,Travis,TX,US,78728-3815
A-7767879,I-35E S,Carrollton,Dallas,TX,US,75006
A-508539,Lee St,Dallas,Dallas,TX,US,75205-4441
A-2993820,I-20 E,Duncanville,Dallas,TX,US,75116
A-3073610,I-45 S,La Marque,Galveston,TX,US,77568
A-2557357,Rodney St,Houston,Harris,TX,US,77034
A-393611,Barker Cypress Rd,Houston,Harris,TX,US,77084-4916
A-2101534,I-35E N,Dallas,Dallas,TX,US,75224
A-3402623,Federal Rd,Houston,Harris,TX,US,77015-4803
A-297363,Stemmons Fwy N,Dallas,Dallas,TX,US,75220
A-2415621,Reagan Ter,Austin,Travis,TX,US,78704-2638
A-7158365,E Parmer Ln,Austin,Travis,TX,US,78754
A-3795398, West St,Houston,Harris,TX,US,77020-5761
A-4875978, N Stemmons Fwy,Dallas,Dallas,TX,US,75247-5108
A-5428372, N Central Expy,Dallas,Dallas,TX,US,75205
A-1892972,Pinemont Dr,Houston,Harris,TX,US,77018-1401
A-3435171,US-377 N,Fort Worth,Tarrant,TX,US,76102
A-1676023,Mopac Expy S,Austin,Travis,TX,US,78746
A-3239229,S 1st St,Austin,Travis,TX,US,78704-5452
A-4680483, Blalock Rd,Houston,Harris,TX,US,77055-4413
A-4121078,Overture Dr,Houston,Harris,TX,US,77082
A-880951,I-45 S,Spring,Harris,TX,US,77373
A-2312002,Westpark Tollway E,Houston,Harris,TX,US,77081
A-7714147,I-20 E,Dallas,Dallas,TX,US,75232
A-6833582, Kemp Blvd,Wichita Falls,Wichita,TX,US,76308-2150
A-5544192, W Camp Wisdom Rd,Dallas,Dallas,TX,US,75237-2819
A-7590521,Tom Landry Fwy,Arlington,Tarrant,TX,US,76011
A-1999650,Barton Springs Rd,Austin,Travis,TX,US,78746-5737
A-1425734,E Interstate 30,Garland,Dallas,TX,US,75043
A-387284,Drummond St,Houston,Harris,TX,US,77025-2309
A-2226809,Fischer Rd,Von Ormy,Bexar,TX,US,78073
A-6696998,I-35E N,Lewisville,Denton,TX,US,75067
A-4140549, S Voss Rd,Houston,Harris,TX,US,77057-3800
A-279616,S Zang Blvd,Dallas,Dallas,TX,US,75208
A-293268,Cameron Rd,Austin,Travis,TX,US,78752
A-4099472, Fuqua St,Houston,Harris,TX,US,77075-3753
A-7761465,Tom Landry Fwy,Dallas,Dallas,TX,US,75212
A-5103704, Southwest Pkwy,Austin,Travis,TX,US,78735
A-5886771,Palazzo Ln,Dallas,Dallas,TX,US,75249
A-1395732,S Lancaster Rd,Dallas,Dallas,TX,US,75241
A-570214,Sarti St,Houston,Harris,TX,US,77066-2914
A-488872,S Munger Blvd,Dallas,Dallas,TX,US,75223
A-3364640,W Little York Rd,Houston,Harris,TX,US,77088
A-275874,US-377 N,Fort Worth,Tarrant,TX,US,76102
A-5210172, Thomas Ave,Dallas,Dallas,TX,US,75204
A-2200031,I-45 N,Houston,Harris,TX,US,77060
A-6866884, Helmers St,Houston,Harris,TX,US,77009
A-7612380,US-67 S,Dallas,Dallas,TX,US,75224
A-2530764,Midwestern Pkwy,Wichita Falls,Wichita,TX,US,76308
A-1264982,W Sam Houston Pkwy N,Houston,Harris,TX,US,77041
A-1230401,I-35W N,Fort Worth,Tarrant,TX,US,76134
A-1217567,I-820 S,Fort Worth,Tarrant,TX,US,76119
A-4558228,TX-12-LOOP,Dallas,Dallas,TX,US,75220
A-2540839,Highway 290 W,Austin,Travis,TX,US,78736-7934
A-572800,Lyndon B Johnson Fwy,Dallas,Dallas,TX,US,75234
A-267769,Royal Ln,Dallas,Dallas,TX,US,75231
A-3073672,W Grand Pkwy S,Katy,Harris,TX,US,77494
A-2395598,I-10 E,San Antonio,Bexar,TX,US,78230
A-639944,I-20,Dallas,Dallas,TX,US,75217
A-3067749,FM 1431,Leander,Travis,TX,US,78641
A-5513948, W Koenig Ln,Austin,Travis,TX,US,78756-1132
A-273581,N Lamar Blvd,Austin,Travis,TX,US,78752-3501
A-484730,Harwin Dr,Houston,Harris,TX,US,77036
A-5667088, Monterey Oaks Blvd,Austin,Travis,TX,US,78749
A-385908,Aldine Westfield Rd,Humble,Harris,TX,US,77338-3302
A-2229793,Patriot Fwy W,El Paso,El Paso,TX,US,79903
A-950875,I-20 E,Balch Springs,Dallas,TX,US,75180
A-7627260,TX-288,Angleton,Brazoria,TX,US,77515
A-2134520,St Joseph Pkwy,Houston,Harris,TX,US,77002-8006
A-431649,Mopac Expy N,Austin,Travis,TX,US,78746
A-2302461,W Fuqua Dr,Missouri City,Fort Bend,TX,US,77489-2802
A-277369,John Carpenter Fwy W,Irving,Dallas,TX,US,75062
A-5502024, Coit Rd,Dallas,Dallas,TX,US,75254-2862
A-6282432,Martin Luther King Fwy N,Fort Worth,Tarrant,TX,US,76104
A-5697335,Connally Loop,San Antonio,Bexar,TX,US,78219
A-3693111, Highway 71 E,Del Valle,Travis,TX,US,78617
A-508874,Weiss Ln,Pflugerville,Travis,TX,US,78660
A-1655077,S Interstate 35,Austin,Travis,TX,US,78744-4815
A-5211323,US-59,New Caney,Montgomery,TX,US,77357
A-1962641,I-635 S,Dallas,Dallas,TX,US,75228
A-5437485,Loop 12 S,Dallas,Dallas,TX,US,75211
A-4327161, Bintliff Dr,Houston,Harris,TX,US,77074
A-2063260,I-35E S,Dallas,Dallas,TX,US,75207
A-7572988,TX-71 W,Austin,Travis,TX,US,78741
A-428322,US-59 N,Houston,Harris,TX,US,77004
A-5176163, Hillcroft Ave,Houston,Harris,TX,US,77057-5807
A-7716408,US-287 S,Fort Worth,Tarrant,TX,US,76119
A-387072,S Kirkwood Rd,Houston,Harris,TX,US,77099-2510
A-4061592,Harwin Dr,Houston,Harris,TX,US,77036
A-287762,Dessau Rd,Pflugerville,Travis,TX,US,78660-5926
A-6015941, E Division St,Muenster,Cooke,TX,US,76252-2713
A-3855052,Lyndon B Johnson Fwy,Dallas,Dallas,TX,US,75238
A-7587728,I-20 E,Grand Prairie,Dallas,TX,US,75052
A-5691757,I-35W S,Fort Worth,Tarrant,TX,US,76137
A-5181731,Bucee's Blvd,Denton,Denton,TX,US,76210
A-993060,W William Cannon Dr,Austin,Travis,TX,US,78749
A-1760912,W Woodlawn Ave,San Antonio,Bexar,TX,US,78201-5405
A-1655043,W Military Dr,Jbsa Lackland,Bexar,TX,US,78236
A-870354,I-20 E,Balch Springs,Dallas,TX,US,75180
A-334041,Lipan Rd,Houston,Harris,TX,US,77063
A-3431540, Navigation Blvd,Houston,Harris,TX,US,77011-1539
A-2399996,E Center St,Kyle,Hays,TX,US,78640
A-4044623, Loyola Ln,Austin,Travis,TX,US,78724
A-7089388,R L Thornton Fwy E,Mesquite,Dallas,TX,US,75150
A-299455,Katy Tollway,Houston,Harris,TX,US,77079
A-7470207,I-20 E,Weatherford,Parker,TX,US,76087
A-2155324,Westview Dr,Houston,Harris,TX,US,77055
A-1947772,E Corporate Dr,Lewisville,Denton,TX,US,75067
A-516912,I-35W S,Fort Worth,Tarrant,TX,US,76104
A-590196,Beamer Rd,Houston,Harris,TX,US,77089-2352
A-3438977,I-45 S,Dallas,Dallas,TX,US,75241
A-5776404,Airport Fwy E,Irving,Dallas,TX,US,75062
A-3442581,US-287 S,Fort Worth,Tarrant,TX,US,76111
A-3139187,Granbury Rd,Fort Worth,Tarrant,TX,US,76133
A-1269754,I-45 S,Streetman,Navarro,TX,US,75859
A-897343,E Erath St,Houston,Harris,TX,US,77012-2064
A-744627,Northwest Fwy,Houston,Harris,TX,US,77040
A-2280964,I-45 S,Houston,Harris,TX,US,77019
A-6507486, Loyola Ln,Austin,Travis,TX,US,78724
A-435351,N Hearsey Dr,Austin,Travis,TX,US,78744-3099
A-2175774,I-10 E,Houston,Harris,TX,US,77015
A-4701764,Woodall Rodgers Fwy N,Dallas,Dallas,TX,US,75207
A-841278,Tom Landry Fwy,Fort Worth,Tarrant,TX,US,76112
A-292973,Grace Ln,Houston,Harris,TX,US,77021
A-2784045,Griggs Rd,Houston,Harris,TX,US,77023
A-3117177,State Highway 359,Laredo,Webb,TX,US,78043
A-295186,US-183 N,Austin,Travis,TX,US,78759
A-304653,Hemphill St,Fort Worth,Tarrant,TX,US,76134
A-284685,Main St,Houston,Harris,TX,US,77035
A-4028336,Katy Trl,Dallas,Dallas,TX,US,75204
A-4386961, E Howard Ln,Manor,Travis,TX,US,78653-9709
A-7657941,I-10 E,El Paso,El Paso,TX,US,79907
A-5366211,E RL Thornton Fwy W,Dallas,Dallas,TX,US,75228
A-388781,San Jacinto St,Houston,Harris,TX,US,77002-7622
A-1556163,Parker Ln,Austin,Travis,TX,US,78741-3808
A-1469817,Bingle Rd,Houston,Harris,TX,US,77092-2103
A-1239857,State Highway 151,San Antonio,Bexar,TX,US,78227
A-2971897,US-77 N,Dallas,Dallas,TX,US,75232
A-1451418,McGallion Rd,Houston,Harris,TX,US,77076
A-4549580, W 13th St,Houston,Harris,TX,US,77008-6511
A-2437167,Loop 820 E,Fort Worth,Tarrant,TX,US,76106
A-3611798,US-59 N,Houston,Harris,TX,US,77004
A-290666,Hamilton Pool Rd,Austin,Travis,TX,US,78738-7104
A-485298,Jacobson Rd,Del Valle,Travis,TX,US,78617-5158
A-5354342,I-10,Houston,Harris,TX,US,77024
A-4766117,North Fwy,Fort Worth,Tarrant,TX,US,76177
A-5244367, Dunlap St,Houston,Harris,TX,US,77085
A-5494844, Feldspar St,Houston,Harris,TX,US,77092-4620
A-2597073,Chartres St,Houston,Harris,TX,US,77004-4142
A-1633587,W 24th St,Austin,Travis,TX,US,78703-2404
A-262103,Waldo,Houston,Harris,TX,US,77036
A-4745430,I-10 E,Seguin,Guadalupe,TX,US,78155
A-1743802,Loop 12 N,Dallas,Dallas,TX,US,75220
A-6958022, Westheimer Rd,Houston,Harris,TX,US,77063-3307
A-5524194,I-35 N,Austin,Travis,TX,US,78722
A-2018286,Connector Dr,Dallas,Dallas,TX,US,75220
A-4056550, Peavy Rd,Dallas,Dallas,TX,US,75228-3750
A-2893644,W Highway 290,Austin,Travis,TX,US,78749
A-5592591, Lake June Rd,Dallas,Dallas,TX,US,75217-3042
A-1261571,John Audubon Pkwy,Webster,Harris,TX,US,77598
A-967491,I-20 E,Terrell,Kaufman,TX,US,75160
A-2429579,FM 1488 Rd,Conroe,Montgomery,TX,US,77384
A-2899649,Texas Ave,El Paso,El Paso,TX,US,79901-1750
A-287606,Eastside Dr,Austin,Travis,TX,US,78704-5214
A-303543,I-30 W,Fort Worth,Tarrant,TX,US,76116
A-6180991,Jackson Keller Rd,San Antonio,Bexar,TX,US,78213
A-3364304,E 7th St,Austin,Travis,TX,US,78702-5013
A-1019684,Bissonnet St,Houston,Harris,TX,US,77099-1331
A-2219527,I-35E N,Dallas,Dallas,TX,US,75203
A-270672,Teton St,Houston,Harris,TX,US,77033-3528
A-1661784,I-635 E,Dallas,Dallas,TX,US,75238
A-4316434,I-35 N,Austin,Travis,TX,US,78741
A-5091902,TX-360 N,Arlington,Tarrant,TX,US,76010
A-3324242,I-35 N,Austin,Travis,TX,US,78747
A-4023479,I-10 W,Houston,Harris,TX,US,77079
A-1725130,S Sam Houston Tollway W,Houston,Harris,TX,US,77048
A-6699584,I-10 W,San Antonio,Bexar,TX,US,78201
A-1338351,Somerset Rd,San Antonio,Bexar,TX,US,78211-4802
A-4389770, Durham Dr,Houston,Harris,TX,US,77007-5409
A-1604091,Dundee Dr,Dallas,Dallas,TX,US,75229
A-1251527,I-35 N,Austin,Travis,TX,US,78741
A-1799390,President George Bush Tpke N,Carrollton,Dallas,TX,US,75006
A-289913,I-45 S,Conroe,Montgomery,TX,US,77385
A-5967022,Connally Loop,San Antonio,Bexar,TX,US,78213
A-6884967, Ennis St,Houston,Harris,TX,US,77004-6132
A-280935,Great Hawk Ln,Houston,Harris,TX,US,77075-4814
A-278906,US-77 S,Dallas,Dallas,TX,US,75220
A-5071589, Westview Dr,Houston,Harris,TX,US,77043-4402
A-2367554,Harvard St,Houston,Harris,TX,US,77008-6940
A-507925,W Ledbetter Dr,Dallas,Dallas,TX,US,75224-5139
A-5305536, W Lawson Rd,Dallas,Dallas,TX,US,75253
A-880021,North Fwy,Houston,Harris,TX,US,77009-3928
A-3123860,Tilbury Dr,Houston,Harris,TX,US,77056-2214
A-744110,NE Loop 410,San Antonio,Bexar,TX,US,78209-1611
A-620258,John Carpenter Fwy E,Dallas,Dallas,TX,US,75247
A-2129650,Chaucer Pl,Dallas,Dallas,TX,US,75237
A-2940002,Berry Rd,Houston,Harris,TX,US,77022-3059
A-6016593, S Westmoreland Rd,Dallas,Dallas,TX,US,75233-1805
A-3014113,I-35 N,Austin,Travis,TX,US,78744
A-3081473,US-87 N,San Antonio,Bexar,TX,US,78257
A-3212004,78th St,Houston,Harris,TX,US,77012
A-3779313,I-35E S,Dallas,Dallas,TX,US,75247
A-293770,W Sam Houston Tollway S,Houston,Harris,TX,US,77072
A-293680,Victory Dr,Austin,Travis,TX,US,78704-7507
A-621647,I-35E,Carrollton,Dallas,TX,US,75006
A-7470519,LBJ Fwy W,Dallas,Dallas,TX,US,75241
A-911488,I-10 W,Houston,Harris,TX,US,77094
A-5356596,I-20 W,Arlington,Tarrant,TX,US,76017
A-2112844,Interstate 35,Pflugerville,Travis,TX,US,78660
A-3378358,I-410 S,San Antonio,Bexar,TX,US,78219
A-2206962,S Congress Ave,Austin,Travis,TX,US,78704-1221
A-268843,Ranchester Dr,Houston,Harris,TX,US,77036
A-331910,I-35 N,Austin,Travis,TX,US,78741
A-488951,Smith,Austin,Travis,TX,US,78721
A-5994124,I-35E S,Dallas,Dallas,TX,US,75247
A-6819209, Madera Dr,Austin,Travis,TX,US,78741-7057
A-4747824,FM-1331,Thorndale,Williamson,TX,US,76577
A-1097370,S Llewellyn Ave,Dallas,Dallas,TX,US,75224
A-7605445,R L Thornton Fwy E,Dallas,Dallas,TX,US,75207
A-2843048,Westview Dr,Houston,Harris,TX,US,77055
A-706410,Penn Hills Ln,Houston,Harris,TX,US,77062
A-2898869,NE Loop 410,San Antonio,Bexar,TX,US,78216
A-4658076, E Cliff Dr,El Paso,El Paso,TX,US,79902
A-1172334,W Ledbetter Dr,Dallas,Dallas,TX,US,75233-3923
A-3396598,US Highway 290 E,Manor,Travis,TX,US,78653-9726
A-1486270,US-183 N,Austin,Travis,TX,US,78759
A-3352416,W Wintergreen Rd,Lancaster,Dallas,TX,US,75134
A-6797112, FM 969,Austin,Travis,TX,US,78724-5301
A-1699700,I-45 N,Dallas,Dallas,TX,US,75241
A-7430982,I-610 E,Houston,Harris,TX,US,77008
A-3424888,TX-360 S,Grand Prairie,Tarrant,TX,US,75050
A-7761042,I-20 E,Dallas,Dallas,TX,US,75236
A-276467,Stemmons Fwy N,Dallas,Dallas,TX,US,75207
A-1735552,NW Loop 410,San Antonio,Bexar,TX,US,78238
A-589934,I-635 N,Balch Springs,Dallas,TX,US,75180
A-728589,Milford St,Houston,Harris,TX,US,77098-5207
A-3087161,E West Rd,Houston,Harris,TX,US,77060-5019
A-3594853,N Sam Houston Tollway E,Houston,Harris,TX,US,77032
A-5130283, Maddox St,Dallas,Dallas,TX,US,75217-4342
A-3067911,I-45 S,Dallas,Dallas,TX,US,75215
A-2728760,Gazin St,Houston,Harris,TX,US,77020-6852
A-3095747,Royal Ln,Dallas,Dallas,TX,US,75229
A-3443545,Woodall Rodgers Fwy N,Dallas,Dallas,TX,US,75207
A-5109952, Greenspoint Dr,Houston,Harris,TX,US,77060
A-801242,Louisiana St,Houston,Harris,TX,US,77002-2707
A-6028465, Arapaho Rd,Dallas,Dallas,TX,US,75248-4265
A-1443958,Roland Rd,San Antonio,Bexar,TX,US,78210
A-5956744, E Cesar Chavez St,Austin,Travis,TX,US,78701-4121
A-1293077,NW Green Oaks Blvd,Arlington,Tarrant,TX,US,76012
A-2498624,Circuit of the Americas Blvd,Del Valle,Travis,TX,US,78617
A-298559,E Riverside Dr,Austin,Travis,TX,US,78704
A-2927575,San Felipe St,Houston,Harris,TX,US,77057-3059
A-2636859,Oakdale St,Houston,Harris,TX,US,77006-6524
A-2005817,Neuens Rd,Houston,Harris,TX,US,77080
A-3331632,S Freeway S,Houston,Harris,TX,US,77047
A-3014190,W Koenig Ln,Austin,Travis,TX,US,78751
A-297497,Ravenwood Cir,Houston,Harris,TX,US,77055-2101
A-2896683,I-610 S,Houston,Harris,TX,US,77012
A-2271054,S Interstate 35,Austin,Travis,TX,US,78744-1803
A-2467339,Bissonnet St,Houston,Harris,TX,US,77099
A-6556358,I-35 S,Austin,Travis,TX,US,78702
A-3557128,W Sam Houston Tollway S,Houston,Harris,TX,US,77042
A-393222,W Illinois Ave,Dallas,Dallas,TX,US,75224
A-2724126,W 43rd St,Houston,Harris,TX,US,77018
A-4856630, Brockbank Dr,Dallas,Dallas,TX,US,75220
A-5524279,I-35W S,Burleson,Tarrant,TX,US,76028
A-4945131, Royal Ln,Dallas,Dallas,TX,US,75230-3810
A-6174012,Peden St,Houston,Harris,TX,US,77006
A-306895,Congress Ave,Austin,Travis,TX,US,78701-2704
A-6871760,Skillman St,Dallas,Dallas,TX,US,75231
A-6519100, S Lancaster Rd,Dallas,Dallas,TX,US,75241
A-3988428,E Loop 820 S,Fort Worth,Tarrant,TX,US,76112
A-1805067,I-35E N,Lewisville,Denton,TX,US,75067
A-453028,Westview Dr,Houston,Harris,TX,US,77055-6146
A-2676493,Tierra Bahia Dr,El Paso,El Paso,TX,US,79938-4353
A-2134274,Casa Oaks Dr,Dallas,Dallas,TX,US,75228
A-3139552,I-610 E,Houston,Harris,TX,US,77017
A-2177715,Irving Blvd,Irving,Dallas,TX,US,75061
A-2181276,TX-121 S,Grapevine,Tarrant,TX,US,76051
A-2063488,Southlawn St,Houston,Harris,TX,US,77021
A-2378896,Hillcroft Ave,Houston,Harris,TX,US,77096-1018
A-6938048, W Erwin St,Tyler,Smith,TX,US,75702-7040
A-973710,Chase Oaks Blvd,Plano,Collin,TX,US,75023
A-1001047,I-45 S,Houston,Harris,TX,US,77009
A-4803479,US-75 S,Dallas,Dallas,TX,US,75226
A-6538099, South Loop W,Houston,Harris,TX,US,77025
A-2988403,TX-360 S,Grand Prairie,Tarrant,TX,US,75052
A-4385046,I-35E,Dallas,Dallas,TX,US,75234
A-1001042,Woodland Park Dr,Houston,Harris,TX,US,77077
A-2406668,E Riverside Dr,Austin,Travis,TX,US,78704
A-2139185,N Sam Houston Pkwy W,Houston,Harris,TX,US,77038
A-4398394, Schneider St,Houston,Harris,TX,US,77093-8501
A-2845637,St Joseph Pkwy,Houston,Harris,TX,US,77002-8301
A-435100,Sun Grace Dr,Arlington,Tarrant,TX,US,76001-7333
A-393544,TX-360 S,Grand Prairie,Tarrant,TX,US,75050
A-2117672,W Anderson Ln,Austin,Travis,TX,US,78757-1457
A-3002368,W Parmer Ln,Austin,Travis,TX,US,78753
A-999027,I-20 E,Arlington,Tarrant,TX,US,76018
A-6185386, Paleface Ranch Rd S,Spicewood,Travis,TX,US,78669-1455
A-1250028,Las Colinas Blvd,Irving,Dallas,TX,US,75039
A-2360480,Connally Loop,San Antonio,Bexar,TX,US,78227
A-301236,W Ledbetter Dr,Dallas,Dallas,TX,US,75232
A-730993,Pardee St,Houston,Harris,TX,US,77026-2910
A-4536532,TX-280-SPUR,Fort Worth,Tarrant,TX,US,76102
A-1520340,N Sam Houston Tollway W,Houston,Harris,TX,US,77064
A-2069197,Aberdeen Way,Austin,Travis,TX,US,78753-4650
A-1035971,I-35E S,Lake Dallas,Denton,TX,US,75065
A-5668320,W Braker Ln,Austin,Travis,TX,US,78753
A-6473700, S Marsalis Ave,Dallas,Dallas,TX,US,75216-6743
A-796620,Aldine Bender Rd,Humble,Harris,TX,US,77396
A-1236953,W Sam Houston Pkwy N,Houston,Harris,TX,US,77041-5107
A-265728,Royal Ln,Dallas,Dallas,TX,US,75229
A-450429,E Berry St,Fort Worth,Tarrant,TX,US,76119
A-6949198,I-35 N,Austin,Travis,TX,US,78744
A-5264517,US-75 S,Dallas,Dallas,TX,US,75243
A-5861304, Lemmon Ave,Dallas,Dallas,TX,US,75209-6240
A-3206562,Loop 12 N,Irving,Dallas,TX,US,75062
A-3028272,Wynnewood Dr,Dallas,Dallas,TX,US,75224
A-390747,Seguin Rd,San Antonio,Bexar,TX,US,78219
A-4396479,Uvalde Rd,Houston,Harris,TX,US,77015
A-548024,Tom Landry Fwy,Dallas,Dallas,TX,US,75212
A-5435313, Malone St,Houston,Harris,TX,US,77007-3126
A-898923,FM 741,Forney,Kaufman,TX,US,75126
A-2589036,Cassandra Dr,Austin,Williamson,TX,US,78717
A-7558226,Connally Loop,San Antonio,Bexar,TX,US,78238
A-3892136, Guadalupe St,Austin,Travis,TX,US,78701
A-2762051,Dallas St,Houston,Harris,TX,US,77002
A-3275908,E Martin Luther King Jr Blvd,Austin,Travis,TX,US,78721-1356
A-1198695,S Lockwood Dr,Houston,Harris,TX,US,77011-3126
A-1220662,N Interstate 35,San Antonio,Bexar,TX,US,78233-5705
A-3286919,US-183 S,Austin,Travis,TX,US,78759
A-1943112,US-90 W,San Antonio,Bexar,TX,US,78207
A-2891389,Westheimer Rd,Houston,Harris,TX,US,77042-3205
A-3107827,Loop 820 E,Hurst,Tarrant,TX,US,76053
A-1017821,John Carpenter Fwy E,Irving,Dallas,TX,US,75063
A-5235621,I-635 E,Dallas,Dallas,TX,US,75238
A-1333426,US-90 W,San Antonio,Bexar,TX,US,78207
A-4607949,S Fitzhugh Ave,Dallas,Dallas,TX,US,75210
A-5825557,Decker Ln,Austin,Travis,TX,US,78724
A-3436615,US-77 N,Dallas,Dallas,TX,US,75203
A-6095374, Royal Ln,Dallas,Dallas,TX,US,75230
A-278455,Probandt,San Antonio,Bexar,TX,US,78204
A-2389065,W Sam Houston Tollway N,Houston,Harris,TX,US,77072
A-1812204,Duval Rd,Austin,Travis,TX,US,78759
A-5627219,Chateau Forest Dr,Houston,Harris,TX,US,77091
A-5925414,E Lancaster Ave,Fort Worth,Tarrant,TX,US,76112
A-3259909,S Sam Houston Tollway W,Houston,Harris,TX,US,77075
A-7623166,US-287 N,Arlington,Tarrant,TX,US,76001
A-2122793,N Raynor St,El Paso,El Paso,TX,US,79905
A-6159352,W Montgomery Rd,Houston,Harris,TX,US,77091
A-2660079,Richmond Ave,Houston,Harris,TX,US,77006-5442
A-2088770,Memorial Dr,Houston,Harris,TX,US,77024
A-4614355, Georgian Dr,Austin,Travis,TX,US,78753
A-5495960, Samuell Blvd,Dallas,Dallas,TX,US,75227
A-4552083,I-30 E,Rockwall,Rockwall,TX,US,75087
A-3834360, Cheryl Lynn Rd,Austin,Travis,TX,US,78747-9754
A-4316831,I-30 E,Fort Worth,Tarrant,TX,US,76116
A-2385253,N Interstate 35,Austin,Travis,TX,US,78751-5202
A-7024650, N Interstate Highway 35 E,Waxahachie,Ellis,TX,US,75167
A-3343579,Eastex Fwy,Houston,Harris,TX,US,77026
A-5548944,458A,Lake Dallas,Denton,TX,US,75065
A-3281871,Montana Ave,Fort Bliss,El Paso,TX,US,79916
A-4693067, Harry Hines Blvd,Dallas,Dallas,TX,US,75235-7712
A-4529349, W Northwest Hwy,Dallas,Dallas,TX,US,75220-4212
A-1659371,W Parmer Ln,Austin,Travis,TX,US,78727-4600
A-2025543,US-75 N,Dallas,Dallas,TX,US,75243
A-4680498,I-45 N,Houston,Harris,TX,US,77090
A-3206586,S G Alexander Fwy,Duncanville,Dallas,TX,US,75137
A-2308107,S Kirkwood Rd,Houston,Harris,TX,US,77072-4001
A-2155285,Aldine Westfield Rd,Houston,Harris,TX,US,77032
A-1081781,I-20 W,Dallas,Dallas,TX,US,75241
A-2570234,Winwick Way,Austin,Travis,TX,US,78727
A-3311404,I-820 W,Fort Worth,Tarrant,TX,US,76179
A-671303,I-635 S,Mesquite,Dallas,TX,US,75149
A-510282,US-75 S,Dallas,Dallas,TX,US,75206
A-1636192,I-35 N,Austin,Travis,TX,US,78723
A-304751,Tierwester St,Houston,Harris,TX,US,77021-2404
A-1394362,Clay Rd,Houston,Harris,TX,US,77041
A-3233497,Medina Base Rd,San Antonio,Bexar,TX,US,78242
A-7464071,I-69 N,Houston,Harris,TX,US,77006
A-3914108, Pearce Ln,Del Valle,Travis,TX,US,78617
A-2069457,US-75 N,Plano,Collin,TX,US,75074
A-7673995,US-67 S,Dallas,Dallas,TX,US,75228
A-709550,TX-71 E,Austin,Travis,TX,US,78704
A-485587,Commons Pkwy,Pflugerville,Travis,TX,US,78660
A-2095814,Houston Ave,Houston,Harris,TX,US,77009
A-3357704,Ed Bluestein Blvd,Austin,Travis,TX,US,78721
A-4242779,I-30,Dallas,Dallas,TX,US,75215
A-1455631,Duval Rd,Austin,Travis,TX,US,78759
A-4479880,I-20 E,Balch Springs,Dallas,TX,US,75180
A-962871,W Mockingbird Ln,Dallas,Dallas,TX,US,75247-5105
A-6664772,US-90 E,San Antonio,Bexar,TX,US,78225
A-7660743,I-45 N,Houston,Harris,TX,US,77076
A-3224257,I-45 N,Houston,Harris,TX,US,77017
A-263121,US-67 S,Mesquite,Dallas,TX,US,75150
A-4965473, Anderson Mill Rd,Austin,Williamson,TX,US,78729
A-5522637,Camino Real,Lockhart,Caldwell,TX,US,78644
A-270174,I-610 N,Houston,Harris,TX,US,77029
A-385139,Cameron Rd,Austin,Travis,TX,US,78752-2981
A-7649578,US-67 N,Dallas,Dallas,TX,US,75226
A-2721707,I-10 W,Houston,Harris,TX,US,77079
A-3192125,Stults Rd,Dallas,Dallas,TX,US,75243
A-2443122,S 1st St,Austin,Travis,TX,US,78748
A-5712925, Drexel Dr,Houston,Harris,TX,US,77027-3909
A-2679266,Shenandoah St,El Paso,El Paso,TX,US,79924
A-3427983,I-35W N,Fort Worth,Tarrant,TX,US,76111
A-294924,Cameron Rd,Austin,Travis,TX,US,78752-2959
A-2745980,Tidwell Rd,Houston,Harris,TX,US,77022
A-631797,I-610 W,Houston,Harris,TX,US,77012
A-1773615,Bay Area Blvd,Houston,Harris,TX,US,77058
A-6802783,I-30 W,Fort Worth,Tarrant,TX,US,76107
A-262182,Ida Ridge Dr,Austin,Travis,TX,US,78727
A-2804373,US-59 S,Houston,Harris,TX,US,77027
A-283141,S Belt Line Rd,Dallas,Dallas,TX,US,75253
A-3260439,I-35 N,Austin,Travis,TX,US,78744
A-4376247,Sam Houston Tlwy,Houston,Harris,TX,US,77089
A-3436796, Collingsworth St,Houston,Harris,TX,US,77026-4515
A-6867460, N Main St,Houston,Harris,TX,US,77009-5427
A-3014052,Connally Loop,San Antonio,Bexar,TX,US,78209
A-1456916,Links Ln,Round Rock,Travis,TX,US,78664-3900
A-6349562,S 2nd Ave,Dallas,Dallas,TX,US,75210
A-433827,Aldine Mail Rd,Houston,Harris,TX,US,77039
A-1637586,I-45 N,League City,Galveston,TX,US,77573
A-638243,Caruth Haven Ln,Dallas,Dallas,TX,US,75206
A-7247821,W Sam Houston Tollway N,Houston,Harris,TX,US,77099
A-2804114,W Red Bird Ln,Dallas,Dallas,TX,US,75237
A-4306621,I-20 W,Fort Worth,Tarrant,TX,US,76140
A-2378560,W 35th St,Austin,Travis,TX,US,78703-1222
A-1307398,N Interstate 35,Live Oak,Bexar,TX,US,78233-3205
A-274098,Dallas North Tollway N,Dallas,Dallas,TX,US,75225
A-4178235, Bluefield Dr,Dallas,Dallas,TX,US,75248-3011
A-3567107,US-77 N,Carrollton,Dallas,TX,US,75006
A-1156089,Milam St,Houston,Harris,TX,US,77006-3525
A-2906289,Stemmons Fwy N,Dallas,Dallas,TX,US,75219
A-668519,Heritage Trace Pkwy,Fort Worth,Tarrant,TX,US,76177
A-293311,E Commerce St,San Antonio,Bexar,TX,US,78205-2685
A-7419815,US-67 S,Dallas,Dallas,TX,US,75223
A-2511684,FM 1327,Buda,Travis,TX,US,78610
A-290490,Lamplight Village Ave,Austin,Travis,TX,US,78727
A-488212,US-90 E,Houston,Harris,TX,US,77024
A-7029031,LBJ Express,Dallas,Dallas,TX,US,75251
A-304888,Wheeler St,Houston,Harris,TX,US,77004
A-3089279,W Rundberg Ln,Austin,Travis,TX,US,78758
A-3373760,Inwood Rd,Dallas,Dallas,TX,US,75220
A-4614840, S Shepherd Dr,Houston,Harris,TX,US,77019-3502
A-2175559,Dallas North Tollway S,Plano,Collin,TX,US,75093
A-1233549,Westheimer Rd,Houston,Harris,TX,US,77063-2703
A-2386959,I-20 W,Abilene,Taylor,TX,US,79603
A-2101704,Brigade,Houston,Harris,TX,US,77080
A-2036865,I-20 E,Arlington,Tarrant,TX,US,76018
A-301291,Banning St,Dallas,Dallas,TX,US,75233
A-2329776,John F Kennedy Blvd,Houston,Harris,TX,US,77032
A-3009326,San Pedro Ave,San Antonio,Bexar,TX,US,78216
A-2570969,N Lee Trevino Dr,El Paso,El Paso,TX,US,79907
A-3182566,Madrigal Ln,Pflugerville,Travis,TX,US,78660
A-5201748, Main St,Houston,Harris,TX,US,77002-9313
A-4943604, Wallisville Rd,Houston,Harris,TX,US,77049-3914
A-6919662, S Broadway Ave,Tyler,Smith,TX,US,75701-4209
A-3211938,W 11th St,Houston,Harris,TX,US,77008
A-4506076,State Loop 1604 N,San Antonio,Bexar,TX,US,78249
A-7455067,I-45 N,Dallas,Dallas,TX,US,75226
A-3111018,Crockett St,Houston,Harris,TX,US,77007-4215
A-3742056, Highland Hills Dr,Dallas,Dallas,TX,US,75241
A-1677871,I-35E N,Denton,Denton,TX,US,76210
A-666378,I-69 N,Houston,Harris,TX,US,77026
A-4237271,Lyndon B Johnson Fwy,Dallas,Dallas,TX,US,75244
A-6752941,I-35E S,Lewisville,Denton,TX,US,75067
A-4122221,Sam Houston Tlwy,Houston,Harris,TX,US,77041
A-2074182,Homestead Rd,Houston,Harris,TX,US,77028
A-938184,Westpark Dr,Houston,Harris,TX,US,77082
A-2896615,Avenue Q,Houston,Harris,TX,US,77011-1446
A-7671335, N Central Expy,Dallas,Dallas,TX,US,75204-3101
A-5065536, San Mateo Blvd,Dallas,Dallas,TX,US,75223-1117
A-1661947,N McCarty St,Houston,Harris,TX,US,77013-3622
A-2462518,US-90 E,San Antonio,Bexar,TX,US,78210
A-3556992,I-37 S,San Antonio,Bexar,TX,US,78223
A-1642602,Rice Rd,Tyler,Smith,TX,US,75703
A-1761052,Tomanet Trl,Austin,Travis,TX,US,78727
A-486362,Peak St,Dallas,Dallas,TX,US,75226
A-6069581, Dartmouth Dr,Tyler,Smith,TX,US,75701-8802
A-5072630,Airport Fwy W,Irving,Dallas,TX,US,75062
A-3998622, Weidemar Ln,Austin,Travis,TX,US,78745-2503
A-2935666,I-635 W,Dallas,Dallas,TX,US,75244
A-6597714, Gus Thomasson Rd,Mesquite,Dallas,TX,US,75150-5346
A-2194418,W Anderson Ln,Austin,Travis,TX,US,78752
A-3426742,US-75 N,Dallas,Dallas,TX,US,75231
A-3433597,I-10 E,Katy,Fort Bend,TX,US,77494
A-4120833,Tom Landry Fwy,Grand Prairie,Dallas,TX,US,75050
A-4174986,N Central Expy,Dallas,Dallas,TX,US,75225
A-4952827, S Sam Houston Pkwy W,Houston,Harris,TX,US,77085-2242
A-5872324, FM 812,Austin,Travis,TX,US,78719-2905
A-1815473,Genoa Red Bluff Rd,Houston,Harris,TX,US,77034
A-4601812,Angus G Wynne Jr Fwy,Arlington,Tarrant,TX,US,76011
A-690661,Brookfield Dr,Houston,Harris,TX,US,77045-6007
A-266181,Willowbrook Mall,Houston,Harris,TX,US,77070
A-2093161,Elsie Faye Heggins St,Dallas,Dallas,TX,US,75210
A-2971732,US-87 N,San Antonio,Bexar,TX,US,78207
A-6293950,I-45 N,Ferris,Ellis,TX,US,75125
A-1412931,Parkway Plaza Dr,Houston,Harris,TX,US,77077
A-3429818,US-59 N,Houston,Harris,TX,US,77004
A-1678921,Sabo Rd,Houston,Harris,TX,US,77089-2509
A-2191220,W Sam Houston Tollway N,Houston,Harris,TX,US,77042
A-1983089,Loop 12 S,Dallas,Dallas,TX,US,75211
A-917102,S Interstate 35,Austin,Travis,TX,US,78748
A-3182796,Commonwealth St,Houston,Harris,TX,US,77006-2572
A-4852369, E Ann Arbor Ave,Dallas,Dallas,TX,US,75216-6572
A-4371536,I-45,Dallas,Dallas,TX,US,75215
A-2486202,Dessau Rd,Austin,Travis,TX,US,78754
A-1126306,Shadow Way,Dallas,Dallas,TX,US,75243-4918
A-3595318,TX-183 W,Hurst,Tarrant,TX,US,76053
A-6672308, Kilkenny Dr,Houston,Harris,TX,US,77048
A-3883983,I-35W S,Burleson,Tarrant,TX,US,76028
A-2101713,S Post Oak Rd,Houston,Harris,TX,US,77035
A-3408960,FM 1826,Austin,Hays,TX,US,78737-2553
A-4774990,N Beckley Ave,Dallas,Dallas,TX,US,75208
A-509313,Justin Ln,Austin,Travis,TX,US,78752
A-6238893,US-80 E,Mesquite,Dallas,TX,US,75149
A-2178152,North Fwy,Houston,Harris,TX,US,77037
A-963099,S Gessner Dr,Houston,Harris,TX,US,77071
A-7663258,US-90 E,Houston,Harris,TX,US,77094
A-2939687,President George Bush Tpke S,Grand Prairie,Dallas,TX,US,75050
A-4630279,Southwest Fwy,Houston,Harris,TX,US,77057
A-5725194, Bissonnet St,Houston,Harris,TX,US,77074-6521
A-3902705, Afton St,Houston,Harris,TX,US,77055-7004
A-898657,S Dairy Ashford Rd,Houston,Harris,TX,US,77082
A-7524592,I-820 N,Fort Worth,Tarrant,TX,US,76112
A-2207395,N Highway 146,Baytown,Chambers,TX,US,77523-9087
A-301331,Deatonhill Dr,Austin,Travis,TX,US,78745
A-2465084,Yale St,Houston,Harris,TX,US,77018-4518
A-2706247,Holmes Rd,Houston,Harris,TX,US,77051
A-7578346,I-45 S,Houston,Harris,TX,US,77009
A-2086327,I-35E N,Dallas,Dallas,TX,US,75229
A-2726330,Stroud Dr,Houston,Harris,TX,US,77036
A-2952806,Broadway St,Pearland,Brazoria,TX,US,77584
A-1810177,N Hampton Rd,Dallas,Dallas,TX,US,75208
A-1502699,Sam Rayburn Tollway N,Allen,Collin,TX,US,75013
A-3444728,I-635 W,Dallas,Dallas,TX,US,75243
A-4607007,NE Loop 820,Fort Worth,Tarrant,TX,US,76137
A-6005126,John Carpenter Fwy E,Dallas,Dallas,TX,US,75247
A-275276,E 32nd St,Austin,Travis,TX,US,78705-2703
A-1989987,N Stemmons Fwy,Dallas,Dallas,TX,US,75220-2425
A-3011592,E Josephine St,San Antonio,Bexar,TX,US,78215-1113
A-5908354,I-20 W,Grand Prairie,Dallas,TX,US,75052
A-6639259, W Little York Rd,Houston,Harris,TX,US,77091-2423
A-5756010,I-635 E,Dallas,Dallas,TX,US,75238
A-5032670, Westover St,Houston,Harris,TX,US,77087
A-261627,W Red Bird Ln,Dallas,Dallas,TX,US,75237
A-2086134,E 21st St,Austin,Travis,TX,US,78722
A-2467367,US-59 S,Houston,Harris,TX,US,77027
A-6135421,Sunflower,Houston,Harris,TX,US,77051
A-858404,I-35E N,Denton,Denton,TX,US,76205
A-1167796,Mercury Dr,Houston,Harris,TX,US,77029
A-2508229,Bonnie View Rd,Dallas,Dallas,TX,US,75241-7401
A-875294,I-20 E,Dallas,Dallas,TX,US,75232
A-5911890, Inwood Rd,Dallas,Dallas,TX,US,75235-7630
A-4001015,Airport Fwy,Euless,Tarrant,TX,US,76040
A-300536,I-610 W,Houston,Harris,TX,US,77012
A-388010,N Weidner Rd,San Antonio,Bexar,TX,US,78233
A-4588294, Fondren Rd,Houston,Harris,TX,US,77063-4904
A-2446533,Guadalupe St,Austin,Travis,TX,US,78752-3611
A-5883272, Baylor St,Austin,Travis,TX,US,78703-5324
A-4200874, S 1st St,Austin,Travis,TX,US,78704
A-431874,N Interstate 35,Austin,Travis,TX,US,78753-3235
A-5808896, Longridge Dr,Houston,Harris,TX,US,77055-1207
A-7723850,TX-360 S,Grand Prairie,Tarrant,TX,US,75052
A-261219,N Sam Houston Pkwy E,Houston,Harris,TX,US,77032-3038
A-1808126,LBJ Fwy N,Dallas,Dallas,TX,US,75228
A-820669,Stemmons Fwy N,Dallas,Dallas,TX,US,75247
A-1860058,Nashville Ave,El Paso,El Paso,TX,US,79903-1108
A-3161835,Michaux St,Houston,Harris,TX,US,77009-3633
A-3086939,US-67 S,Rockwall,Rockwall,TX,US,75087
A-7479620,Cesar Chaves Border Hwy,El Paso,El Paso,TX,US,79907
A-1163076,LBJ Express,Dallas,Dallas,TX,US,75234
A-1647105,Parker Ranch Cir,Austin,Travis,TX,US,78748-5177
A-2154859,Redbud Trl,West Lake Hills,Travis,TX,US,78746-4342
A-1734078,W Orem Dr,Houston,Harris,TX,US,77045-4310
A-2106066,N Interstate 35,Austin,Travis,TX,US,78753
A-4335623, Merriman Pkwy,Dallas,Dallas,TX,US,75231-5641
A-937558,Tom Landry Fwy,Arlington,Tarrant,TX,US,76011
A-1712197,County Road 524,Lipan,Erath,TX,US,76462
A-6737564,Valley View Ln,Dallas,Dallas,TX,US,75234
A-3311690,Dennis Rd,Dallas,Dallas,TX,US,75229
A-2032878,I-30 E,Fort Worth,Tarrant,TX,US,76103
A-5400537, Cameron Rd,Pflugerville,Travis,TX,US,78660-8915
A-4232027,I-35 N,San Antonio,Bexar,TX,US,78204
A-485681,Old Katy Rd,Houston,Harris,TX,US,77007
A-4621845, Stone Canyon Rd,Dallas,Dallas,TX,US,75230
A-6752232, Willow Bend Dr,Austin,Travis,TX,US,78758-2821
A-1549532,President George Bush Tpke W,Dallas,Collin,TX,US,75287
A-4942360,Northwest Fwy,Houston,Harris,TX,US,77040
A-488402,W Illinois Ave,Dallas,Dallas,TX,US,75224
A-2065535,N FM 973,Austin,Travis,TX,US,78724
A-1435847,N Lee Trevino Dr,El Paso,El Paso,TX,US,79936-5162
A-6457786,I-10 E,San Antonio,Bexar,TX,US,78201
A-5503891,I-35E S,Dallas,Dallas,TX,US,75247
A-877804,Forum Place Dr,Houston,Harris,TX,US,77036
A-7740944,I-20 E,Arlington,Tarrant,TX,US,76017
A-485525,Tom Landry Fwy,Arlington,Tarrant,TX,US,76011
A-1851182,I-30 E,Fort Worth,Tarrant,TX,US,76112
A-279455,Gessner Dr,Houston,Harris,TX,US,77055
A-1462893,N Interstate 35,Austin,Travis,TX,US,78751
A-4242797, Elsie Faye Heggins St,Dallas,Dallas,TX,US,75210-2817
A-6742839,I-635 W,Dallas,Dallas,TX,US,75251
A-2996733,N Pleasant Valley Rd,Austin,Travis,TX,US,78702-4838
A-918955,St Joseph Pkwy,Houston,Harris,TX,US,77002-8302
A-3176861,S Capital of Texas Hwy,Austin,Travis,TX,US,78746-6525
A-3568296,I-45 N,Houston,Harris,TX,US,77037
A-5183679, E 7th St,Austin,Travis,TX,US,78702-3424
A-429344,FM 1625,Austin,Travis,TX,US,78744
A-2950528,Manchaca Rd,Austin,Travis,TX,US,78748
A-887154,Airport Fwy,Haltom City,Tarrant,TX,US,76117
A-3595804,N Sam Houston Tollway E,Houston,Harris,TX,US,77064
A-6762576,N Sam Houston Tollway W,Houston,Harris,TX,US,77064
A-2667089,Mopac Expy N,Austin,Travis,TX,US,78727
A-3430276,R L Thornton Fwy E,Dallas,Dallas,TX,US,75228
A-276457,W Parmer Ln,Austin,Travis,TX,US,78759
A-1633440,W Howard Ln,Austin,Travis,TX,US,78727
A-7100388,LBJ Express,Dallas,Dallas,TX,US,75251
A-3425224,Northwest Fwy,Houston,Harris,TX,US,77092
A-2633855,W Baetz Blvd,San Antonio,Bexar,TX,US,78221
A-2225007,W Sam Houston Pkwy N,Houston,Harris,TX,US,77024-4735
A-5103866, E Laurel St,Tyler,Smith,TX,US,75702-3524
